TRACKINGNUMBER,NAME,PHYSICALADDRESS,PHYSICALCITY,FACTYPE,LATITUDE,LONGITUDE
SWOD-APSP3X,104 Sushi & Co.,10422 168 St,Surrey,Restaurant,49.19205936,-122.7562559
SDFO-88ESVK,5 Star Catering,5640 188 St,Surrey,Restaurant,49.10544931,-122.7013147
NDAA-8RNNVR,555 Pizza Ltd,9192 120 St,Surrey,Restaurant,49.17027429,-122.8899878
SYOG-5M5942,7-Eleven #26365,7986 120 St,Surrey,Restaurant,49.14818852,-122.8902211
GEDS-6KHW57,7-Eleven #26517,17638 60 Ave,Surrey,Restaurant,49.11132152,-122.7342709
GEDS-7YZN48,7-Eleven #34339,14410 108 Ave,Surrey,Restaurant,49.19859619,-122.8225072
SHEN-9SGNQT,7-Eleven #34501,6021 168 St,Surrey,Restaurant,49.11179111,-122.7569037
SDFO-8AULF9,7-Eleven #34633,15961 Fraser Hwy,Surrey,Restaurant,49.15789394,-122.7793664
SDFO-8L8SZK,7-Eleven #34907,13993 Fraser Hwy,Surrey,Restaurant,49.1792836,-122.8348249
ACAK-8XKMAF,7-Eleven #35770,6828 128 St,Surrey,Restaurant,49.12696263,-122.8675312
NDAA-9L2T78,7-Eleven #36022H,19188 72 Ave,Surrey,Restaurant,49.13346587,-122.6915763
HPAR-AE2S2K,7-Eleven #37876H,7195 King George Blvd,Surrey,Restaurant,49.13306413,-122.8459607
SPLH-ASNP2T,7-Eleven #38206,19161 Fraser Hwy,Surrey,Restaurant,49.11961383,-122.6918165
SHEN-A2CTME,7-Eleven (Canada Store #37206H),9989 152 St,Surrey,Restaurant,49.18393107,-122.8012472
HPAR-AFGRCA,7-Eleven (Canada Store #37865H),14445 64 Ave,Surrey,Restaurant,49.11930582,-122.8226847
HPAR-AFGPRP,7-Eleven (Canada Store #37866H),10376 152 St,Surrey,Restaurant,49.19106581,-122.8005237
NDAA-99WMTF,7-Eleven Canada Store #36676,9583 132 St,Surrey,Restaurant,49.17681933,-122.8571514
HPAR-AE2Q87,7-Eleven Store # 37868,6422 120 St,Surrey,Restaurant,49.11967428,-122.8899621
SWOD-AQAKLU,7-ElevenStore and Gas Bar (Canada Store #37875H),10416 King George Blvd,Surrey,Restaurant,49.19204825,-122.8450674
A016730    ,North Surrey Secondary School Cafeteria,15945 96 Ave,Surrey,Restaurant,49.17706626,-122.78034
A018238    ,Northview Golf & Country Club (Canal Kiosk),6857 168 St,Surrey,Restaurant,49.12596694,-122.7582261
A018273    ,Northview Golf & Country Club (Kitchen/Duffey's Sports Grill),6857 168 St,Surrey,Restaurant,49.12596694,-122.7582261
A018235    ,Northview Golf & Country Club (Palmer Dining Room),6857 168 St,Surrey,Restaurant,49.12596694,-122.7582261
A018365    ,Northview Golf & Country Club (Ridge Kiosk),6857 168 St,Surrey,Restaurant,49.12596694,-122.7582261
GEDS-646TNK,Notti Biscotti,15252 32 Ave,Surrey,Restaurant,49.06101028,-122.7984696
HCAR-B8BVF7,Nutri-Dough Pizza,16033 108 Ave,Surrey,Restaurant,49.1989669,-122.7777544
MARO-B8MT96,O My Tea Cafe,6820 188 St,Surrey,Restaurant,49.1266045,-122.701433
GEDS-69G2FV,Occasions at the Pond,14245 56 Ave,Surrey,Restaurant,49.10531865,-122.8279662
MARO-B39S2C,Ocean Park Donair,12867 16 Ave,Surrey,Restaurant,49.03150343,-122.8657544
JDSO-ACGS7Y,Ocean Park Pizza,13186 104 Ave,Surrey,Restaurant,49.19151483,-122.8571927
GEDS-6QPNYJ,Ocean Park Pizza & Village Pub,12822 16 Ave,Surrey,Restaurant,49.03112769,-122.8668078
SDFO-88QSPT,Ocean Park Pizza (72nd Ave),12818 72 Ave,Surrey,Restaurant,49.13371285,-122.8673791
MARO-AWVP8R,Oh So Sweet Sugar Boutique,12101 72 Ave,Surrey,Restaurant,49.13501849,-122.8876389
SHEN-AZMPFK,Ok Hee Bae Food Co,15930 Fraser Hwy,Surrey,Restaurant,49.15706506,-122.7818799
HCAR-BCUQXS,Okonomiyaki Pon,2950 King George Blvd,Surrey,Restaurant,49.0556839,-122.8055577
NDAA-92UNDS,Old Surrey Restaurant,13483 72 Ave,Surrey,Restaurant,49.13375295,-122.8488885
RORS-5ZXQPD,Omega Pizza & Wings,7577 King George Blvd,Surrey,Restaurant,49.14042433,-122.845941
GEDS-7FAR6Z,Omega Pizza & Wings (152nd St),9965 152 St,Surrey,Restaurant,49.18379312,-122.8012729
A019565    ,On Yuen Restaurant,9014 152 St,Surrey,Restaurant,49.16697429,-122.7992408
SHEN-AJDQCL,One More Thai Restaurant,7158 120 St,Surrey,Restaurant,49.13337244,-122.8899265
SHEN-A3NLE3,One Up Cafe,2755 192 St,Surrey,Restaurant,49.05247451,-122.6918171
MMAR-7YMNCT,OPA Souvlaki of Greece (Surrey),10153 King George Blvd,Surrey,Restaurant,49.18592247,-122.8458478
SPLH-9LFPJW,OPA! of Greece,10355 152 St,Surrey,Restaurant,49.19192585,-122.8042654
SDFO-8FWNRZ,Orange Julius,10153 King George Blvd,Surrey,Restaurant,49.18592247,-122.8458478
GEDS-7ENSTB,Orange Julius (White Rock),1711 152 St,Surrey,Restaurant,49.0331143,-122.801669
GEDS-7NJ2JT,Original Bhaia Sweet Shop,15299 68 Ave,Surrey,Restaurant,49.12656472,-122.7992341
GEDS-7ZPMT4,Otter Gas Bar @ Surrey,16788 104 Ave,Surrey,Restaurant,49.1914658,-122.7568889
NDAA-966PCS,Outtakes,12161 72 Ave,Surrey,Restaurant,49.13501244,-122.8865012
GEDS-772UVP,Pacific Academy,10238 168 St,Surrey,Restaurant,49.18891871,-122.7562398
GEDS-7X2MK9,Pacific Billiards and Snookers,13774 104 Ave,Surrey,Restaurant,49.19140906,-122.8406446
NDAA-9FVSNK,Pacific Bistro and Convenience Store,382 175A St,Surrey,Restaurant,49.00903312,-122.7359333
RORS-5U6QTF,Pacific Carlton,15366 17 Ave,Surrey,Restaurant,49.03276382,-122.7963745
NDAA-9FJTXM,Pacific Community Church,5337 180 St,Surrey,Restaurant,49.09979624,-122.7241954
NDAA-9B3TGR,Pacific Kabab Hut & Catering,10731 King George Blvd,Surrey,Restaurant,49.19765626,-122.8457037
A018215    ,Pacific Life Bible College Cafeteria,15100 66A Ave,Surrey,Restaurant,49.12335647,-122.8036279
SWOD-AF3QGR,Pacific Pizza,12817 Old Yale Rd,Surrey,Restaurant,49.19783731,-122.8670205
NDAA-9AZT2Q,Pacifica Retirement Residence,2525 King George Blvd,Surrey,Restaurant,49.04778017,-122.7976604
A019866    ,Pak Punjab Sweets & Somosas House,12835 96 Ave,Surrey,Restaurant,49.17731947,-122.8666015
SPLH-9P9LLM,Pakwan House,13030 76 Ave,Surrey,Restaurant,49.14081751,-122.8611741
SPLH-9NKPBX,Palmyra Mediterranean Grill,10020 152 St,Surrey,Restaurant,49.18460092,-122.8005947
HCAR-AUNR89,Panago #022,16120 24 Ave,Surrey,Restaurant,49.04472384,-122.776141
A019660    ,Panago #07,14851 108 Ave,Surrey,Restaurant,49.1994351,-122.8101977
SODN-65HUKF,Panago #10,8556 120 St,Surrey,Restaurant,49.15831669,-122.8900703
GEDS-7BRP3Y,Panago #23,7320 King George Blvd,Surrey,Restaurant,49.13512719,-122.8451398
A019251    ,Panago #32,15420 Fraser Hwy,Surrey,Restaurant,49.1635911,-122.7955622
NDAA-93TVRY,Panago #65,12840 16 Ave,Surrey,Restaurant,49.03114098,-122.8662063
SDFO-8LML24,Panago #80,5669 176A St,Surrey,Restaurant,49.10533344,-122.7338782
SHEN-B32QLT,Panago Pizza #34,7310 120 St,Surrey,Restaurant,49.1357896,-122.8900083
NDAA-9DSUU7,Panda Szechuan,3099 152 St,Surrey,Restaurant,49.05809016,-122.8021367
GEDS-6TEV3Q,Panorama Ridge Secondary School Food Service,13220 64 Ave,Surrey,Restaurant,49.11879109,-122.8549875
HCAR-B7YPEQ,Papa Joe's Pizza,16055 Fraser Hwy,Surrey,Restaurant,49.1569391,-122.7771027
SHEN-AZUMHY,Papa John's (Surrey),10558 King George Blvd,Surrey,Restaurant,49.19478964,-122.8449385
SDFO-8JBLH9,Papa John's Pizza #009770 (Surrey),10320 152 St,Surrey,Restaurant,49.19010913,-122.8005972
SWOD-AHBR8X,Papa John's Pizza (South Surrey),2245 160 St,Surrey,Restaurant,49.04289123,-122.7795525
MARO-AZMPRS,Papa Murphy`s Pizza,15355 24 Ave,Surrey,Restaurant,49.04583671,-122.7975044
GEDS-82XN83,Parkland Fellowship,9574 160 St,Surrey,Restaurant,49.17636906,-122.7785642
GEDS-65FUQU,Parkland Food Market,8270 144 St,Surrey,Restaurant,49.15336924,-122.8231242
SHEN-9ZWTDU,Pasta Vino Trattoria & Bar,15355 24 Ave,Surrey,Restaurant,49.04583671,-122.7975044
A020208    ,Path to Freedom Treatment Centre,19030 56 Ave,Surrey,Restaurant,49.10421009,-122.6955071
SDFO-8HKP7E,Pattullo A&W,12808 King George Blvd,Surrey,Restaurant,49.20610961,-122.8668064
SHEN-A47R49,Payal Chaat House & Restaurant,12877 80 Ave,Surrey,Restaurant,49.14842952,-122.8651435
SYOG-5M546R,Peace Portal Alliance Church - Commercial Kitchen,15128 27B Ave,Surrey,Restaurant,49.05269784,-122.8034408
PNEL-6HRRVX,Peace Portal Alliance Church - Servery,15128 27B Ave,Surrey,Restaurant,49.05269784,-122.8034408
A019654    ,Peace Portal Golf Course Lounge,16900 4 Ave,Surrey,Restaurant,49.00906878,-122.7530026
A019528    ,Peace Portal Golf Course Restaurant,16900 4 Ave,Surrey,Restaurant,49.00906878,-122.7530026
SWOD-AKARQ2,Peace Portal Seniors Village,15441 16 Ave,Surrey,Restaurant,49.03127807,-122.7945278
HCAR-B9QS7W,Peaceful Restaurant,7320 King George Blvd,Surrey,Restaurant,49.13512719,-122.8451398
SHEN-9SSR22,Peachwave Clayton Yogurt,18696 Fraser Hwy,Surrey,Restaurant,49.12429034,-122.7036574
GEDS-642SW4,Pearl Fever (Surrey),10330 152 St,Surrey,Restaurant,49.19027016,-122.8000928
SHEN-9QASUV,Pearl Fever Tea House,7310 120 St,Surrey,Restaurant,49.1357896,-122.8900083
GEDS-6LJUGF,Peninsula Resort Retirement Food Service,2088 152 St,Surrey,Restaurant,49.03966889,-122.8009538
SPLH-AAAUPT,Pepperoni Cafe,6388 120 St,Surrey,Restaurant,49.11879807,-122.8901287
NDAA-9C6M25,Pho 99,19533 Fraser Hwy,Surrey,Restaurant,49.11505665,-122.6818106
SHEN-AP8NJL,Pho 99 Express,12837 76 Ave,Surrey,Restaurant,49.141185,-122.8666709
SWOD-AFGPCU,Pho 99 Vietnamese Noodle House (Surrey),8934 152 St,Surrey,Restaurant,49.16515858,-122.8007845
HCAR-B9DNXR,Pho Guildford Restaurant,15138 100 Ave,Surrey,Restaurant,49.18398086,-122.8025302
SHEN-APNR78,Pho Hillton Vietnamese Restaurant,18640 Fraser Hwy,Surrey,Restaurant,49.12546293,-122.7060946
GEDS-7FBP3Q,Pho Hoa Hong Vietnamese Restaurant,10302 City Pky,Surrey,Restaurant,49.18995809,-122.8473921
A019121    ,Pho Hoa Restaurant (Surrey),14357 104 Ave,Surrey,Restaurant,49.19172924,-122.8237719
HCAR-B6KRT3,Pho Hung Restaurant (Surrey),16033 108 Ave,Surrey,Restaurant,49.1989669,-122.7777544
ACAK-8VLMLT,Pho Newton,7488 King George Blvd,Surrey,Restaurant,49.13853724,-122.8452552
HCAR-AVJVJ5,Pho Oh-Ba-Ma,15155 101 Ave,Surrey,Restaurant,49.18629935,-122.802234
NDAA-8ZMPNB,Pho Sunrise Vietnamese Cuisine,15355 24 Ave,Surrey,Restaurant,49.04583671,-122.7975044
A018996    ,Pho Tam Vietnamese Restaurant,10302 City Pky,Surrey,Restaurant,49.18995809,-122.8473921
NDAA-8ZRNLV,Pho Tau Bay Restaurant,7322 King George Blvd,Surrey,Restaurant,49.1353508,-122.8451582
GEDS-6UHQTM,Pho Tau Bay Restaurant (Surrey),10782 148 St,Surrey,Restaurant,49.19805184,-122.8122606
GEDS-76XSU2,Pick & Chews Teriyaki,1711 152 St,Surrey,Restaurant,49.0331143,-122.801669
GEDS-6WVQM8,PICS - Assisted Living Food Service,12075 75A Ave,Surrey,Restaurant,49.14031733,-122.8879403
NDAA-8ZBRY3,Pikanik,1959 152 St,Surrey,Restaurant,49.03727504,-122.8014669
HCAR-BD9P6E,Pink Lotus Pho,16016 Fraser Hwy,Surrey,Restaurant,49.1569315,-122.778281
GEDS-7NXTJY,Piquant Gourmet Foods,1627 128 St,Surrey,Restaurant,49.03172404,-122.8677375
SHEN-A72QKH,Pita Pit #235,9908 King George Blvd,Surrey,Restaurant,49.18334718,-122.8449947
GEDS-7FAUTC,Pita Pit (Surrey),7320 King George Blvd,Surrey,Restaurant,49.13512719,-122.8451398
GEDS-7MMUPB,Pizza 24 (Surrey),9514 120 St,Surrey,Restaurant,49.17605137,-122.889867
SHEN-A2FN38,Pizza 64,12499 88 Ave,Surrey,Restaurant,49.16335778,-122.8766604
GEDS-83MVDP,Pizza 64,13190 64 Ave,Surrey,Restaurant,49.11884568,-122.8569577
SWOD-9Z3MVN,Pizza 64 #2,16780 64 Ave,Surrey,Restaurant,49.11868842,-122.7575345
KSMH-AQWTG2,Pizza 85,8553 132 St,Surrey,Restaurant,49.15823711,-122.8577082
HCAR-B3WMVR,Pizza Boss,5775 176 St,Surrey,Restaurant,49.10733737,-122.7351874
HCAR-BD3QD4,Pizza Empire,2982 152 St,Surrey,Restaurant,49.05569682,-122.8009088
A020239    ,Pizza Factory (Surrey 2),6838 King George Blvd,Surrey,Restaurant,49.12666981,-122.8451219
SHEN-ANSP7T,Pizza Hub,9436 King George Blvd,Surrey,Restaurant,49.17441007,-122.8455239
GEDS-6U4THW,Pizza Hut #31104,13786 104 Ave,Surrey,Restaurant,49.19140493,-122.8403703
GEDS-6U4TBQ,Pizza Hut #31106,1738 152 St,Surrey,Restaurant,49.0336339,-122.8010486
GEDS-6U4QJY,Pizza Hut #31122,15951 Fraser Hwy,Surrey,Restaurant,49.15815596,-122.7802487
GEDS-6U4Q7U,Pizza Hut #31123,13753 72 Ave,Surrey,Restaurant,49.13377078,-122.8405811
GEDS-6U4Q4B,Pizza Hut #31124,10160 152 St,Surrey,Restaurant,49.18699498,-122.8005135
SHEN-AGKNPK,Pizza Hut #31152,12477 88 Ave,Surrey,Restaurant,49.16395195,-122.8770559
HCAR-B84R8K,Pizza Hut #31156,15133 56 Ave,Surrey,Restaurant,49.10516994,-122.8057861
SWOD-AJP25M,Pizza Hut #R39801,2711 192 St,Surrey,Restaurant,49.05150946,-122.6918208
GEDS-82BRGL,Pizza Inn,19390 68 Ave,Surrey,Restaurant,49.12623835,-122.6858235
JDSO-ACHTG3,Pizza Knight,19161 Fraser Hwy,Surrey,Restaurant,49.11961383,-122.6918165
SPLH-A9TUJR,Pizza Nation,13980 108 Ave,Surrey,Restaurant,49.19866862,-122.8345977
SHEN-9PQPQM,Pizza Pit,15989 108 Ave,Surrey,Restaurant,49.19896015,-122.7792982
HCAR-B83S78,Pizza Pizza #551,2370 152 St,Surrey,Restaurant,49.04507501,-122.8009586
NDAA-9C5SN9,Pizza Plus 96,12050 96 Ave,Surrey,Restaurant,49.17699844,-122.8874688
SDFO-8P6URP,Pizza Point,13651 100 Ave,Surrey,Restaurant,49.18443069,-122.8439126
GEDS-7QVQDQ,Planet India Restaurant,13775 72 Ave,Surrey,Restaurant,49.13379072,-122.839071
GEDS-7AGRER,Polonia Bakery & Deli (Surrey),14641 108 Ave,Surrey,Restaurant,49.19890626,-122.8165809
NDAA-8RKSYR,Polonia Sausage Deli,14045 104 Ave,Surrey,Restaurant,49.19169103,-122.8329255
NDAA-AC3N6U,Pop Up Soup Kitchen,13483 72 Ave,Surrey,Restaurant,49.13375295,-122.8488885
SPLH-AV62J6,Popeye's Supplements (Surrey),16030 24 Ave,Surrey,Restaurant,49.04521951,-122.7779787
HCAR-BCNQ6T,Popeyes Louisiana Kitchen (Surrey),14380 64 Ave,Surrey,Restaurant,49.11891548,-122.8237849
GEDS-7QXLV4,Popular Fish House,9532 120 St,Surrey,Restaurant,49.17628345,-122.8898588
A018392    ,Port Kells Cafe,9531 192 St,Surrey,Restaurant,49.17562717,-122.6908387
KSMH-ASMT2M,Port Kells Nurseries,18730 88 Ave,Surrey,Restaurant,49.16254018,-122.7035647
SHEN-AP5M2Q,Porto Fino Express,14016 32 Ave,Surrey,Restaurant,49.06010392,-122.8334671
A014274    ,Porto Fino Express (Surrey),6350 120 St,Surrey,Restaurant,49.11815677,-122.8900634
HCAR-B3WQT7,Potemia,10277 City Pky,Surrey,Restaurant,49.18955259,-122.8478886
GEDS-5ZHT3D,Prabu Sweets,7035 128 St,Surrey,Restaurant,49.1303486,-122.8681502
HCAR-AZXSZK,Prado Cafe,13483 103rd Ave,Surrey,Restaurant,49.19029297,-122.8481079
NDAA-8QSTSA,Prairie Cafe,15280 Fraser Hwy,Surrey,Restaurant,49.1650491,-122.7991749
GEDS-7V3QCJ,Price Pro - Deli,6899 King George Blvd,Surrey,Restaurant,49.12803784,-122.8459609
GEDS-7V3QGQ,Price Pro - Snack Bar,6899 King George Blvd,Surrey,Restaurant,49.12803784,-122.8459609
A017695    ,Princess Margaret Secondary School Cafeteria,12870 72 Ave,Surrey,Restaurant,49.13358041,-122.8653874
ACAK-8XGT5P,PSI Sushi & Roll,10245 King George Blvd,Surrey,Restaurant,49.18879513,-122.8455269
GEDS-5ZZMJS,Puccinos,7495 132 St,Surrey,Restaurant,49.13903649,-122.8569749
NDAA-A9KPFF,Punjab Banquet Hall,8166 128 St,Surrey,Restaurant,49.15130553,-122.8673937
SYOG-5M56PQ,Punjab Sweet House,12818 72 Ave,Surrey,Restaurant,49.13371285,-122.8673791
NDAA-9CDPEY,Punjabi Masihi Church,14488 72 Ave,Surrey,Restaurant,49.13354678,-122.8207122
HCAR-BCLQZF,Punje Spice Restaurant,2828 152 St,Surrey,Restaurant,49.05326246,-122.8009054
A019658    ,Purdy's Chocolates (South Surrey),1711 152 St,Surrey,Restaurant,49.0331143,-122.801669
MARO-B37PB7,Quesada #148,2711 192 St,Surrey,Restaurant,49.05150946,-122.6918208
MARO-AWURFL,Quesada - Burritos & Tacos,10153 King George Blvd,Surrey,Restaurant,49.18592247,-122.8458478
SWOD-A8QVAV,Quesada - Burritos & Tacos,13737 96 Ave,Surrey,Restaurant,49.17720977,-122.842751
SHEN-AKQNEW,Quizno's #674,15940 Fraser Hwy,Surrey,Restaurant,49.15704507,-122.7809649
SWOD-AHYRYX,Quizno's Classic Subs #671,12077 72 Ave,Surrey,Restaurant,49.13428679,-122.8883716
SWOD-AFTSDT,Quizno's Classic Subs #7266,15335 56 Ave,Surrey,Restaurant,49.10468961,-122.7980857
PNEL-8QX26S,Quiznos Sub #7277,10355 120 St,Surrey,Restaurant,49.19095424,-122.8907569
NDAA-A67QA4,Quiznos Sub #7833,2670 152 St,Surrey,Restaurant,49.05026809,-122.8009322
NDAA-8WQRZD,Railway Cafe,13375 115 Ave,Surrey,Restaurant,49.21175112,-122.8517885
ACAK-9AJSSH,Rama Sweets & Restaurant,7028 120 St,Surrey,Restaurant,49.13087217,-122.8900449
SWOD-AQNTUW,Ramada Hotel - Breakfast Bar,19225 No 10 Hwy,Surrey,Restaurant,49.10466404,-122.6902725
KSMH-ATMS8A,Rana Catering,8910 120 St,Surrey,Restaurant,49.16515223,-122.8900695
SHEN-9SSQ9R,Rangoli Catering & Sweets Ltd.,17665 66A Ave,Surrey,Restaurant,49.1235247,-122.7332104
GEDS-72BNAT,Rasoi Fine Indian Cuisine,3268 King George Blvd,Surrey,Restaurant,49.06108806,-122.8120565
SYOG-5M5622,Real Canadian Superstore #1521 - Deli,7550 King George Blvd,Surrey,Restaurant,49.13966312,-122.845258
SWOD-AEQPQX,Real Canadian Superstore #1551 - Deli,2332 160 St,Surrey,Restaurant,49.04383012,-122.7764031
A019207    ,Real Canadian Superstore #1556 - Deli,14650 104 Ave,Surrey,Restaurant,49.19123455,-122.8160259
A016609    ,Red Baron Restaurant,12180 Beecher St,Surrey,Restaurant,49.05222907,-122.8842696
NDAA-9NDRSE,Red Robin Gourmet Burgers (Guildford),10237 152 St,Surrey,Restaurant,49.1884148,-122.801301
SWOD-AHGRV8,Red Rose Restaurant,6914 King George Blvd,Surrey,Restaurant,49.1282149,-122.8451665
GEDS-7KFM8D,Red Rose Restaurant,2381 King George Blvd,Surrey,Restaurant,49.04479007,-122.7941418
SWOD-A53NQT,Red Shiso Japanese Restaurant,10833 160 St,Surrey,Restaurant,49.19945971,-122.7789059
SPLH-ASUNJH,Relate Church,6788 152 St,Surrey,Restaurant,49.1257959,-122.8006767
SWOD-9UHPGQ,Republica Coffee Roasters,5674 176 St,Surrey,Restaurant,49.10547949,-122.7347679
HCAR-B5GM6G,Rickshaw Chinese Food Whalley Co,10505 King George Blvd,Surrey,Restaurant,49.1934541,-122.8456637
A019020    ,Ricky's All Day Grill #2,8958 152 St,Surrey,Restaurant,49.1654512,-122.8011492
JCOE-67H9A8,Ricky's All Day Grill #20,17830 56 Ave,Surrey,Restaurant,49.10399479,-122.7284669
A019324    ,Ricky's Country Restaurant,2160 King George Blvd,Surrey,Restaurant,49.0414101,-122.7878014
GEDS-76LVCK,Ricky's Country Restaurant - Cloverdale,19219 56 Ave,Surrey,Restaurant,49.10427952,-122.6901561
NDAA-9P3PZH,Riverside Signature Banquet Hall,13030 76 Ave,Surrey,Restaurant,49.14081751,-122.8611741
SHEN-B7BQ5V,Roadhouse Social Lounge,1781 King George Blvd,Surrey,Restaurant,49.03425714,-122.7800552
JDSO-ABZT44,Rocky Mountain Chocolate Factory (Guildford),10355 152 St,Surrey,Restaurant,49.19192585,-122.8042654
HCAR-AW6SGS,RoDem Korea,15277 100 Ave,Surrey,Restaurant,49.1844401,-122.7987902
HCAR-AZYMYH,Rokku Asian Cuisine,1990 152 St,Surrey,Restaurant,49.03807582,-122.8005191
A020062    ,Ronnie's Restaurant,6542 King George Blvd,Surrey,Restaurant,49.12158708,-122.8451071
NDAA-A3VQ76,Rose Sweets & Tandoori Hut,12565 88 Ave,Surrey,Restaurant,49.16401631,-122.8747815
SWOD-ALRRJG,Rosemary Heights Seniors Village (Assisted Living Kitchen),15240 34 Ave,Surrey,Restaurant,49.06355857,-122.8005938
SWOD-ALRRB2,Rosemary Heights Seniors Village (Main Kitchen),15240 34 Ave,Surrey,Restaurant,49.06355857,-122.8005938
SHEN-B74PVN,Rosemary Rocksalt,16030 24 Ave,Surrey,Restaurant,49.04521951,-122.7779787
SWOD-AJ6RHL,Rosie's Country Cafe,3033 King George Blvd,Surrey,Restaurant,49.0568465,-122.8081268
SHEN-9SZRRW,Rotary Field House,2197 148 St,Surrey,Restaurant,49.04038605,-122.8150858
KSMH-AK7R5Y,Round Table Pizza,12030 80 Ave,Surrey,Restaurant,49.14840143,-122.8891608
SHEN-BCSV32,Royal Canadian Legion Branch #229 (King George Blvd),10767 King George Blvd,Surrey,Restaurant,49.19833815,-122.8459989
JCOE-67H9A4,Royal Canadian Legion Branch #240,2643 128 St,Surrey,Restaurant,49.05053022,-122.867608
A017877    ,Royal Canadian Legion Branch #6 Bar,17567 57 Ave,Surrey,Restaurant,49.10616789,-122.7364031
A016764    ,Royal Canadian Legion Branch #6 Kitchen,17567 57 Ave,Surrey,Restaurant,49.10616789,-122.7364031
SYOG-5M5482,Royal Canadian Legion Branch #8 - Lounge,2290 152 St,Surrey,Restaurant,49.04347012,-122.8009478
HCAR-BCSTPX,Royal Curry Restaurant & Sweets,12588 72 Ave,Surrey,Restaurant,49.13370717,-122.873843
A018898    ,Royal Oak Pizza and Steak House,15336 Fraser Hwy,Surrey,Restaurant,49.16437477,-122.7976534
SHEN-B9XU28,Royal Paan,8148 128 St,Surrey,Restaurant,49.15057771,-122.8648305
SHEN-A7LSB9,Royal Pacific Restaurant Ltd.,9190 120 St,Surrey,Restaurant,49.17022058,-122.889986
HCAR-B6GVC8,Royal Punjab Sweets,15299 68 Ave,Surrey,Restaurant,49.12656472,-122.7992341
SPLH-AAAUX2,Royal's Pizza,12837 88 Ave,Surrey,Restaurant,49.16276072,-122.8671874
GEDS-7FATXC,Ruben's Restaurant,15282 Fraser Hwy,Surrey,Restaurant,49.16501585,-122.7990887
GEDS-75PLQX,Rusty's Neighbourhood Pub,17770 56 Ave,Surrey,Restaurant,49.10255448,-122.7303915
SHEN-APFUB3,S & L Kitchen & Bar South Surrey,16051 24 Ave,Surrey,Restaurant,49.04582614,-122.7774926
GEDS-6DSQ6B,Sabai Thai Restaurant,10391 150 St,Surrey,Restaurant,49.19105767,-122.8066322
A020395    ,Sachdeva Sweets & Restaurant,7500 120 St,Surrey,Restaurant,49.13913715,-122.8900684
HCAR-B6KNWQ,Safari House of Grill,12889 84 Ave,Surrey,Restaurant,49.15556846,-122.8657296
ACAK-9CALHP,Safeway #4900 - Snack Bar & Deli,10355 King George Blvd,Surrey,Restaurant,49.19071922,-122.8457989
ACAK-9CALNC,Safeway #4900 - Starbucks Coffee,10355 King George Blvd,Surrey,Restaurant,49.19071922,-122.8457989
ACAK-9CAMG4,Safeway #4914 - China Kitchen,15355 24 Ave,Surrey,Restaurant,49.04583671,-122.7975044
ACAK-9CAME9,Safeway #4914 - Deli,15355 24 Ave,Surrey,Restaurant,49.04583671,-122.7975044
ACAK-9CAMF5,Safeway #4914 - Starbucks Coffee,15355 24 Ave,Surrey,Restaurant,49.04583671,-122.7975044
ACAK-9CAMPV,Safeway #4920 - Deli,8860 152 St,Surrey,Restaurant,49.16377605,-122.8013253
ACAK-9CAMQN,Safeway #4920 - Starbucks Coffee,8860 152 St,Surrey,Restaurant,49.16377605,-122.8013253
ACAK-9CANVB,Safeway #4939 - Deli,12825 16 Ave,Surrey,Restaurant,49.03148969,-122.8667034
SHEN-B4GLZ6,Sage Dining Services,2656 160 St,Surrey,Restaurant,49.05006748,-122.7786
PNEL-8R2MJU,Saggi Sweet & Restaurant,7248 132 St,Surrey,Restaurant,49.13451113,-122.8564095
SWOD-AL5UUH,Sahota's Live Grill,7548 120 St,Surrey,Restaurant,49.13980911,-122.8900035
JDSO-ACHLL4,Saini Sweets & Restaurant,15988 Fraser Hwy,Surrey,Restaurant,49.15724844,-122.7795386
SHEN-A7GQWB,Saint Germain Bakery,10355 152 St,Surrey,Restaurant,49.19192585,-122.8042654
SWOD-AK9QKR,Saison,10153 King George Blvd,Surrey,Restaurant,49.18592247,-122.8458478
SDFO-8F2KW3,Sakuya Sushi,1593 128 St,Surrey,Restaurant,49.03101667,-122.8677884
HCAR-ATQPHX,Sal y Limon Mexican Cuisine,2428 160 St,Surrey,Restaurant,49.04648581,-122.7788055
HCAR-B6KS2K,Salish Secondary Cafeteria,7278 184 St,Surrey,Restaurant,49.13515591,-122.712048
SDFO-8KTTGY,Salty's Fish & Chips,17750 56 Ave,Surrey,Restaurant,49.10394114,-122.7304217
SPLH-9KKLS7,Salty's Fish And Chips,15953 Fraser Hwy,Surrey,Restaurant,49.15879416,-122.7801459
NDAA-9CCPX5,Sammy J's Grill & Bar,15770 Croydon Dr,Surrey,Restaurant,49.04654772,-122.7845253
A019048    ,Samz Neighborhood Pub,19580 56 Ave,Surrey,Restaurant,49.10422301,-122.6804945
A020412    ,Sandcastle Bowl Bar & Grill,1938 152 St,Surrey,Restaurant,49.03724945,-122.8009197
A018007    ,Sangam Palace,11267 125A St,Surrey,Restaurant,49.2073838,-122.8746878
GEDS-6NKTCW,Sanja Punjab Sweet House,12830 96 Ave,Surrey,Restaurant,49.17696905,-122.8670944
SHEN-A4MU79,Sapphire 2 Bistro Banquets,7500 120 St,Surrey,Restaurant,49.13913715,-122.8900684
SWOD-A35RCT,Sapporo Kitchen,1625 152 St,Surrey,Restaurant,49.03240001,-122.8016914
SWOD-AENN54,Sarpanch Sweets And Restaurant,14645 108 Ave,Surrey,Restaurant,49.19888287,-122.816413
SWOD-9Z3M5P,Sashimi & Sushi Express,15277 100 Ave,Surrey,Restaurant,49.1844401,-122.7987902
SDFO-8FQQ94,Satnam Education Society of BC,10677 124 St,Surrey,Restaurant,49.19613704,-122.8789124
SWOD-AHBRRB,Satya Asha Fusion Bar & Restaurant,12818 72 Ave,Surrey,Restaurant,49.13371285,-122.8673791
A019543    ,Save On Foods #2207 - Deli,10312 King George Blvd,Surrey,Restaurant,49.18972695,-122.8448863
GEDS-6VZNPH,Save On Foods #2215 - Deli,17745 64 Ave,Surrey,Restaurant,49.11971809,-122.7319246
HCAR-AZXQVR,Save On Foods #2215 - Wine,17745 64 Ave,Surrey,Restaurant,49.11971809,-122.7319246
SWOD-A4ZPMN,Save On Foods #2215 Kitchen,17745 64 Ave,Surrey,Restaurant,49.11971809,-122.7319246
A019397    ,Save On Foods #2235 - Kitchen,1641 152 St,Surrey,Restaurant,49.0325256,-122.8016893
GEDS-7MKUBS,Save On Foods #2263 - Deli,18710 Fraser Hwy,Surrey,Restaurant,49.12422162,-122.7033916
A019791    ,Save On Foods #903 - Deli,3033 152 St,Surrey,Restaurant,49.05707032,-122.8020864
GEDS-79JU38,Save On Foods #910 - Deli,7320 King George Blvd,Surrey,Restaurant,49.13512719,-122.8451398
SHEN-9UJU2N,Save On Foods #918 - Kitchen,9014 152 St,Surrey,Restaurant,49.16697429,-122.7992408
GEDS-66S2CD,Save On Foods #939 - Deli,12130 Nordel Way,Surrey,Restaurant,49.16125226,-122.8860325
JRON-67B26M,Save On Foods #939 - Seafood Section,12130 Nordel Way,Surrey,Restaurant,49.16125226,-122.8860325
SDFO-8EUQ7N,Sawbuck's Pub,1626 152 St,Surrey,Restaurant,49.0316488,-122.8008961
NDAA-9R9MQD,Scott Hill Pizza,15154 Fraser Hwy,Surrey,Restaurant,49.16640004,-122.8026669
SHEN-ABMQFG,Scott Hill Pizza,9380 120 St,Surrey,Restaurant,49.17352547,-122.88992
GEDS-6TSR35,Scott Hill Pizza (137th St),7330 137 St,Surrey,Restaurant,49.13602606,-122.8425791
SWOD-AQFQD7,Scott's 96 Pizza,15932 96 Ave,Surrey,Restaurant,49.17674494,-122.7808194
SWOD-A54NS4,Scott's Landing,14877 108 Ave,Surrey,Restaurant,49.19944932,-122.8092791
A018893    ,Scottsdale Lanes Snack/Lounge,12033 84 Ave,Surrey,Restaurant,49.15611731,-122.8889887
GEDS-6E8Q78,Seahorse Grill,12147 Sullivan St,Surrey,Restaurant,49.05601542,-122.8852786
SPLH-9SZQ3M,Second Cup - Store #9686,13750 96 Ave,Surrey,Restaurant,49.1768222,-122.8424406
SHEN-A2KV3D,777 Pizza & Donair,7750 128 St,Surrey,Restaurant,49.14358109,-122.8676534
JDSO-AD4MWR,A & W #0755,8811 126 St,Surrey,Restaurant,49.1633754,-122.8737864
A017301    ,A&W #0180,1711 152 St,Surrey,Restaurant,49.0331143,-122.801669
A018613    ,A&W #0315,17830 56 Ave,Surrey,Restaurant,49.10399479,-122.7284669
A017293    ,A&W #0338,7330 King George Blvd,Surrey,Restaurant,49.13603845,-122.8452337
A017349    ,A&W #0339,12133 72 Ave,Surrey,Restaurant,49.13426872,-122.8867063
A017335    ,A&W #0348,15988 Fraser Hwy,Surrey,Restaurant,49.15724844,-122.7795386
A020068    ,A&W #0389,8488 120 St,Surrey,Restaurant,49.15703763,-122.8901006
SDFO-8HVQQ6,A&W #0575,2303 King George Blvd,Surrey,Restaurant,49.04383959,-122.7920079
HCAR-BC9TWR,A&W #0735,10153 King George Hwy,Surrey,Restaurant,49.18592247,-122.8458478
SWOD-A53UKG,A&W #0768,9900 King George Blvd.,Surrey,Restaurant,49.18235922,-122.844907
NDAA-9BHRSB,A&W #749,10355 152 St,Surrey,Restaurant,49.19192585,-122.8042654
SHEN-A6LRKW,A&W Restaurant #0767,16033 108 Ave,Surrey,Restaurant,49.1989669,-122.7777544
HCAR-AVHUXX,A&W Restaurant #0789,2332 160 St,Surrey,Restaurant,49.04383012,-122.7764031
SHEN-9SZQZX,A&W Restaurant (Campbell Heights),2725 192 St,Surrey,Restaurant,49.05220052,-122.6918188
GEDS-7WNLD2,A1 Coffee & Donuts,14795 108 Ave,Surrey,Restaurant,49.19888405,-122.8127273
NDAA-9LCTP9,Aaron's Steak & Pizza,17665 57 Ave,Surrey,Restaurant,49.10610661,-122.7332369
GEDS-82GN63,Academics preKindergarten,15300 Croydon Dr,Surrey,Restaurant,49.05992987,-122.7980344
SHEN-B55Q3P,Active Body Express,15850 26 Ave,Surrey,Restaurant,49.04901067,-122.7830508
HCAR-BANU4F,Adana Grill,13647 72 Ave,Surrey,Restaurant,49.13373657,-122.8442029
SDFO-8JQQA2,Afghan Bakery and Fast Food,13748 104 Ave,Surrey,Restaurant,49.19140156,-122.841156
GEDS-7NQMLP,Afghan Chopan,12888 80 Ave,Surrey,Restaurant,49.14799486,-122.8660483
HCAR-ASJM82,Afghan Kitchen,16120 24 Ave,Surrey,Restaurant,49.04472384,-122.776141
GEDS-7SQSSS,Aggarwal Sweets,8158 128 St,Surrey,Restaurant,49.15125369,-122.8651168
SHEN-9ZZMMA,Agoongyi Korean Restaurant,19555 Fraser Hwy,Surrey,Restaurant,49.11473773,-122.6811169
NDAA-9ENQTN,Aji Sushi Family Kitchen,3268 King George Blvd,Surrey,Restaurant,49.06108806,-122.8120565
HCAR-BDRV5B,Aka Sushi,18408 64 Ave,Surrey,Restaurant,49.11859295,-122.7119888
GEDS-6KQRZZ,Akasaka Japanese Restaurant (Surrey),15110 101 Ave,Surrey,Restaurant,49.18597032,-122.8034003
ACAK-8YCPMD,Akash Chaat House & Restaurant,12877 80 Ave,Surrey,Restaurant,49.14842952,-122.8651435
A018765    ,Al & Jan's Fish & Chips,9014 152 St,Surrey,Restaurant,49.16697429,-122.7992408
SWOD-A3NPVR,Alebi African Cuisine,10694 135A St,Surrey,Restaurant,49.19704062,-122.8467038
A013615    ,Alexandra Neighbourhood House (Main Dining Hall),2916 McBride Ave,Surrey,Restaurant,49.05540441,-122.8850721
A017226    ,Aling Mary's Filipino Restaurant,13979 104 Ave,Surrey,Restaurant,49.19166232,-122.8346494
NDAA-8YAT4Z,All About Pho,10190 King George Blvd,Surrey,Restaurant,49.18759458,-122.8451525
HCAR-AUXPC5,Ambros Subway,19188 72 Ave,Surrey,Restaurant,49.13346587,-122.6915763
PNEL-8SRNSV,Amenida Seniors Community,13855 68 Ave,Surrey,Restaurant,49.12674536,-122.8389384
NDAA-93ARHG,An Pho Vietnamese Restaurant,13784 104 Ave,Surrey,Restaurant,49.19140543,-122.8404146
NDAA-8YPQCC,Anand Pizza and Sweet Shop,13245 72 Ave,Surrey,Restaurant,49.13385503,-122.855425
JDSO-ACPLSA,Anjali's Dosa Garden,13560 77 Ave,Surrey,Restaurant,49.14253796,-122.8470645
NDAA-9C3S2J,Aomori Sushi Japanese Restaurant,13767 72 Ave,Surrey,Restaurant,49.13376303,-122.8398677
GEDS-7HVV7W,Apna Chaat House,7500 120 St,Surrey,Restaurant,49.13913715,-122.8900684
NDAA-98TQ7G,Arbourside Court,13751 74 Ave,Surrey,Restaurant,49.13739667,-122.8404603
SHEN-A72QX9,Archies BBQ,10180 153rd St,Surrey,Restaurant,49.1875961,-122.7978827
MARO-B3LRLU,Argyll Lodge,14590 106A Ave,Surrey,Restaurant,49.1958818,-122.817822
SPLH-9SZU57,Aria Banquet & Convention Centre,12350 Pattullo Pl,Surrey,Restaurant,49.20319635,-122.8803006
GEDS-7TBT7Q,Arirang Korean Restaurant,14916 104 Ave,Surrey,Restaurant,49.19133805,-122.8082472
A019968    ,Asia Restaurant,15551 Fraser Hwy,Surrey,Restaurant,49.16241879,-122.7912586
JDSO-ACJV37,Asian Flavour Deli,13048 Old Yale Rd,Surrey,Restaurant,49.18882471,-122.8607165
GEDS-6HLMTJ,Asian Noodle Island,15988 Fraser Hwy,Surrey,Restaurant,49.15724844,-122.7795386
RORS-63ZMXY,Assini Pizza Restaurant Ltd,15551 Fraser Hwy,Surrey,Restaurant,49.16241879,-122.7912586
NDAA-94FQEJ,Awahsuk Aboriginal Head Start Association of BC,14589 108 Ave,Surrey,Restaurant,49.198918,-122.8176284
SWOD-AF3QQF,Ay Chihuahua Mexican Food,1726 152 St,Surrey,Restaurant,49.03330007,-122.8009363
HCAR-BCUQRD,B & B Restaurant,8077 King George Blvd,Surrey,Restaurant,49.1494583,-122.8460133
GEDS-78NVVM,Ba Le Deli & Sandwiches,15277 100 Ave,Surrey,Restaurant,49.1844401,-122.7987902
SHEN-BCSUVC,Bacayon Chibugan,13979 104 Ave,Surrey,Restaurant,49.19166232,-122.8346494
SHEN-9PELJD,Backstretch Restaurant,17740 62 Ave,Surrey,Restaurant,49.11555279,-122.7308511
PNEL-8R5V4M,Baik Mi Korean Restaurant,19539 Fraser Hwy,Surrey,Restaurant,49.11496842,-122.6816187
SHEN-9ZWSSQ,Bakeshop and Cafe,16011 Fraser Hwy,Surrey,Restaurant,49.15741148,-122.7784307
NDAA-9K2Q6R,Bamboo Restaurant,15785 Croydon Dr,Surrey,Restaurant,49.0472666,-122.784369
MARO-AZ7VFD,Barcelo's Flame Grilled Chicken (24th Ave),16070 24 Ave,Surrey,Restaurant,49.04520078,-122.7773528
SHEN-BBWSVV,Barcelos - Impact Plaza,15280 101 Ave,Surrey,Restaurant,49.18597274,-122.7986031
SHEN-9TFPMS,Barcelos Chicken,12499 88 Ave,Surrey,Restaurant,49.16335778,-122.8766604
SHEN-A63QD6,Barcelos Flame Grilled Chicken (King George),7577 King George Blvd,Surrey,Restaurant,49.14042433,-122.845941
SDFO-8MMLPS,Select Pizza,8434 120 St,Surrey,Restaurant,49.15659098,-122.8900795
ACAK-8XGPZ4,Select Pizza (72nd Ave),13635 72 Ave,Surrey,Restaurant,49.13383332,-122.8443458
ACAK-8HLT5U,Semiahmoo House Society,15306 24 Ave,Surrey,Restaurant,49.04543687,-122.7980257
A016809    ,Semiahmoo Secondary School,1785 148 St,Surrey,Restaurant,49.03511455,-122.8129711
SHEN-AGNMSP,Seniors Come Share Society Day Program for Adults,15355 102A Ave,Surrey,Restaurant,49.18894853,-122.7966394
NDAA-9RNU4U,Seoul Grill House,15155 101 Ave,Surrey,Restaurant,49.18629935,-122.802234
HCAR-B9JUC2,Seriously Good Catering (Peace Portal Alliance Church),15128 27B Ave,Surrey,Restaurant,49.05269784,-122.8034408
HCAR-BA8QHR,Seriously Good Catering (Rotary Field House),2197 148 St,Surrey,Restaurant,49.04038605,-122.8150858
A019043    ,Shagun Sweets (Surrey),8388 128 St,Surrey,Restaurant,49.15488649,-122.8677007
GEDS-6MQ252,Shakerz Show Lounge,10458 Whalley Blvd,Surrey,Restaurant,49.19268665,-122.8419221
SDFO-8KCLSD,Shannon Donair,17581 57 Ave,Surrey,Restaurant,49.10609837,-122.735363
NDAA-9H4SAQ,Sharondale Lodge,17826 57 Ave,Surrey,Restaurant,49.10591655,-122.7287649
NDAA-APCPMF,Shawarma Palace,7218 King George Blvd,Surrey,Restaurant,49.1343323,-122.8452132
SHEN-AU2UNF,Sheila's Catering,2201 148 St,Surrey,Restaurant,49.04327446,-122.8147946
GEDS-66BRLC,Sheraton Vancouver Guildford Hotel - Fresh Lounge,15269 104 Ave,Surrey,Restaurant,49.19170882,-122.7988466
GEDS-66BRNT,Sheraton Vancouver Guildford Hotel - Fresh Restaurant,15269 104 Ave,Surrey,Restaurant,49.19170882,-122.7988466
NDAA-ALUPSA,Short & Sweet Patisserie and Bakery,16793 60 Ave,Surrey,Restaurant,49.11167704,-122.757482
NDAA-APCP2Z,Showshaa,3020 152 St,Surrey,Restaurant,49.0572222,-122.8008502
GEDS-6732QE,Shree Sanata Dharam Sabha (Fiji) of BC,8473 124 St,Surrey,Restaurant,49.15709529,-122.8794494
SYOG-5M59W3,Shri Durga Mandir,7750 128 St,Surrey,Restaurant,49.14358109,-122.8676534
ACAK-8XKQ6L,Sikh Academy,12895 85 Ave,Surrey,Restaurant,49.15761124,-122.8650054
HCAR-ASNP97,Snowy Village (Surrey),10090 152 St,Surrey,Restaurant,49.18575463,-122.8005815
HCAR-B97QHH,Soboya Sushi Japanese Restaurant,8952 152 St,Surrey,Restaurant,49.16530528,-122.8007781
HCAR-BCLQF8,Sockeye Sushi,18818 68 Ave,Surrey,Restaurant,49.12601123,-122.7010967
SDFO-894RT6,Sodexo Food Services - Surrey Campus,12666 72 Ave,Surrey,Restaurant,49.13362169,-122.8713254
GEDS-7P929P,Sofi's Shawarma & Donairs,8928 152 St,Surrey,Restaurant,49.16516372,-122.8011565
SHEN-AP5NAA,Softball City Extra Innings - Sport & Grill,2201 148 St,Surrey,Restaurant,49.04327446,-122.8147946
SHEN-AP5NF6,Softball City Extra Innings - Time Out Concession,2201 148 St,Surrey,Restaurant,49.04327446,-122.8147946
GEDS-6XZP8T,Song Huong Vietnamese Restaurant,14667 108 Ave,Surrey,Restaurant,49.19887903,-122.8159039
SWOD-AHRVAL,Song's Snack Stop & Convenience Store,9613 192 St,Surrey,Restaurant,49.17736128,-122.690718
GEDS-7R5P2M,Soo's Grocery,13980 108 Ave,Surrey,Restaurant,49.19866862,-122.8345977
NDAA-9QERMR,Sources Connection Cafe & Catering,14601 20 Ave,Surrey,Restaurant,49.03980925,-122.818622
GEDS-7UDPRX,Sources Life Skills Resource Centre,12996 60 Ave,Surrey,Restaurant,49.11169934,-122.862255
NDAA-9QJQ4J,Sources Women's Place,15318 20 Ave,Surrey,Restaurant,49.03817959,-122.7980168
A016829    ,South Surrey Ice Arena - Lower Concession,2199 148 St,Surrey,Restaurant,49.04156877,-122.8152443
A016828    ,South Surrey Ice Arena - Upper Concession,2199 148 St,Surrey,Restaurant,49.04156877,-122.8152443
SWOD-A5GVJT,Spice 72 Indian Restaurant & Lounge,12025 72 Ave,Surrey,Restaurant,49.13426727,-122.8896971
NDAA-9A7QNA,Spice Kings,15325 56 Ave,Surrey,Restaurant,49.10524442,-122.798429
DMIL-96GQWF,Spice Meats,7028 120 St,Surrey,Restaurant,49.13087217,-122.8900449
JDSO-AEFNMX,Spice of Nepal,13486 72 Ave,Surrey,Restaurant,49.13339373,-122.8487895
SHEN-A79US9,Spice of Punjab Sweets & Restaurant,6350 120 St,Surrey,Restaurant,49.11815677,-122.8900634
SHEN-AKAW3E,Spicy Bowl Restaurant Inc,10725 King George Blvd,Surrey,Restaurant,49.19747121,-122.8456921
SWOD-AHPVGB,Spinhouse Cycling Studio,16041 24 Ave,Surrey,Restaurant,49.04630357,-122.7777057
NDAA-9GUMV3,Sportica's Excellent Ice - On Ice Grill,15000 54A Ave,Surrey,Restaurant,49.10157588,-122.8080184
NDAA-9GUN4K,Sportica's Excellent Ice - Snack Bar,15000 54A Ave,Surrey,Restaurant,49.10157588,-122.8080184
SYOG-5M55P6,St Bernadette Parish Hall,6555 132 St,Surrey,Restaurant,49.12138486,-122.8566824
A018350    ,Starbucks Coffee #139,17967 56 Ave,Surrey,Restaurant,49.10433763,-122.7250269
JCOE-67H9B8,Starbucks Coffee #142,1658 128 St,Surrey,Restaurant,49.03233639,-122.8672689
A019329    ,Starbucks Coffee #144,7380 King George Blvd,Surrey,Restaurant,49.13673593,-122.8452107
ACAK-8VGVCP,Starbucks Coffee #17256,17455 56 Ave,Surrey,Restaurant,49.10436862,-122.7395975
A017915    ,Starbucks Coffee #175,8898 152 St,Surrey,Restaurant,49.16465749,-122.8011703
NDAA-93TW5R,Starbucks Coffee #18290,15850 26 Ave,Surrey,Restaurant,49.04901067,-122.7830508
A016904    ,Starbucks Coffee #194,1730 152 St,Surrey,Restaurant,49.03340524,-122.8009272
NDAA-9BFS8W,Starbucks Coffee #19771,10355 152 St,Surrey,Restaurant,49.19192585,-122.8042654
NDAA-9NUQZV,Starbucks Coffee #22435,13737 96 Ave,Surrey,Restaurant,49.17720977,-122.842751
SHEN-AMTPVU,Starbucks Coffee #29383,10385 120 St,Surrey,Restaurant,49.19157709,-122.8906927
SDFO-8EAUE3,Starbucks Coffee #4105,15941 Fraser Hwy,Surrey,Restaurant,49.15831657,-122.7805969
A019360    ,Starbucks Coffee #4255,10362 King George Blvd,Surrey,Restaurant,49.19096128,-122.8450561
A014724    ,Starbucks Coffee #4406,3061 152 St,Surrey,Restaurant,49.05755824,-122.8021027
GEDS-68T2FB,Starbucks Coffee #4468,10174 152 St,Surrey,Restaurant,49.18723165,-122.8006326
NDAA-9R8Q9Z,Starbucks Coffee #4473,10355 152 St,Surrey,Restaurant,49.19192585,-122.8042654
GEDS-6HQPVN,Starbucks Coffee #4593,2670 152 St,Surrey,Restaurant,49.05026809,-122.8009322
GEDS-6GTQ2V,Starbucks Coffee #4596,3278 King George Blvd,Surrey,Restaurant,49.06115882,-122.8121525
GEDS-7V3R4H,Barney's Pizza & Chicken,8140 128 St,Surrey,Restaurant,49.15063342,-122.8673223
KSMH-ASJPMA,Baron's Manor Pub,9568 192 St,Surrey,Restaurant,49.17632235,-122.6901231
JDSO-AC3PRJ,Basant Sweet,8148 128 St,Surrey,Restaurant,49.15057771,-122.8648305
GEDS-6JTQZT,Baselines Pub,8233 166 St,Surrey,Restaurant,49.15164148,-122.7619706
GEDS-6VQNPM,Baselines Pub,1938 152 St,Surrey,Restaurant,49.03724945,-122.8009197
A019739    ,Baskin-Robbins Ice Cream #5321,19585 Fraser Hwy,Surrey,Restaurant,49.11428272,-122.6801166
NDAA-9RWU3U,BBQ King Delight Inc,8973 152 St,Surrey,Restaurant,49.16573945,-122.8018043
SWOD-AKEM7K,BBQ Nation,7238 137 St,Surrey,Restaurant,49.1345334,-122.8426152
SDFO-8FAUQX,Bear Creek Market,13578 88 Ave,Surrey,Restaurant,49.16252604,-122.847019
SYOG-5M5624,Bear Creek Market,8776 140 St,Surrey,Restaurant,49.16246168,-122.8344014
SHEN-9ZSST8,Bear Creek Park Concession,13750 88 Ave,Surrey,Restaurant,49.16216661,-122.842413
NDAA-986SEL,Bear Creek Villa,8233 140 St,Surrey,Restaurant,49.15268943,-122.8349443
ACAK-962S88,Beast & Brine Local Provisions,12823 Crescent Rd,Surrey,Restaurant,49.05320652,-122.8669833
HCAR-BA9QLB,Belles Cafe,14007 32 Ave,Surrey,Restaurant,49.06040443,-122.8332503
MARO-B2KQU3,Bengal Grill Restaurant,7750 128 St,Surrey,Restaurant,49.14358109,-122.8676534
SDFO-886NQ3,Bennett Craft & Kitchen,187 176 St,Surrey,Restaurant,49.00522904,-122.7358159
SWOD-AETSW7,Bento Nouveau,2332 160 St,Surrey,Restaurant,49.04383012,-122.7764031
PNEL-8SUUNC,Bento Nouveau (RCSS #1521),7550 King George Blvd,Surrey,Restaurant,49.13966312,-122.845258
GEDS-6TCTLH,Bento Nouveau (RCSS #1556),14650 104 Ave,Surrey,Restaurant,49.19123455,-122.8160259
SHEN-B7BQC5,Best Western Peace Arch Inn,2293 King George Blvd,Surrey,Restaurant,49.04345776,-122.791427
GEDS-7NQ2E6,Bethshan Gardens,17528 59 Ave,Surrey,Restaurant,49.10942888,-122.7372715
GEDS-6HJTPV,Bhaia Sweet & Restaurant,13753 72 Ave,Surrey,Restaurant,49.13377078,-122.8405811
PGOO-65PTDL,Bhaia Sweet Shop & Restaurant,6828 128 St,Surrey,Restaurant,49.12696263,-122.8675312
NDAA-A4VRMG,Bharat Parmar Sweet Shop & Restaurant,13745 72 Ave,Surrey,Restaurant,49.13376451,-122.8411269
PNEL-8RHMTB,Bharat Sweets & Restaurant,15166 Fraser Hwy,Surrey,Restaurant,49.16628593,-122.8023928
NDAA-93AV3A,Big Chicken Town,15280 101 Ave,Surrey,Restaurant,49.18597274,-122.7986031
GEDS-85UR69,Big Ridge Brewing Company,5580 152 St,Surrey,Restaurant,49.10381618,-122.8006762
SHEN-AZ7MAQ,Big Star Sandwich Co (24th Ave),16050 24 Ave,Surrey,Restaurant,49.04470344,-122.7776793
SWOD-APUNLH,Big Star Sandwich Co (Surrey),13402 104 Ave,Surrey,Restaurant,49.19147564,-122.8508567
SPLH-ARZV5U,Black Tiger Coffee Co,19255 Fraser Hwy,Surrey,Restaurant,49.11894729,-122.6894311
SHEN-AZUN3H,Blaze Pizza,2433 161A St,Surrey,Restaurant,49.04668069,-122.7753016
NDAA-9BXTB7,Blenz Central City,13450 102 Ave,Surrey,Restaurant,49.18791904,-122.8487665
HCAR-AW9VDF,Blenz Coffee,16855 24 Ave,Surrey,Restaurant,49.04596382,-122.7552384
PNEL-8RZMFC,Blenz Coffee (152nd),1711 152 St,Surrey,Restaurant,49.0331143,-122.801669
SWOD-A59RBM,Blenz Coffee (Central City South),10153 King George Blvd,Surrey,Restaurant,49.18592247,-122.8458478
SWOD-AHJR4U,Blenz Coffee (Sullivan Heights),14330 64 Ave,Surrey,Restaurant,49.11851305,-122.825215
SDFO-8LPPWW,Blenz Coffee Cafe,9750 140 St,Surrey,Restaurant,49.1797256,-122.8338248
SDFO-8HETFG,Blenz Coffee Kiosk (140th St),9750 140 St,Surrey,Restaurant,49.1797256,-122.8338248
HCAR-B93S8S,Blenz Guildford Recreation Centre,15105 105 Ave,Surrey,Restaurant,49.19341233,-122.8025395
NDAA-9BXPQ9,Blenz SFU Kiosk,13450 102 Ave,Surrey,Restaurant,49.18791904,-122.8487665
NDAA-A4NNJN,Boiling Point,15146 100 Ave,Surrey,Restaurant,49.18396932,-122.8022452
NDAA-A2KMBQ,Bolivar Heights Gas Bar,13916 Grosvenor Rd,Surrey,Restaurant,49.20368515,-122.8363483
GEDS-77FUY9,Bollywood Banquet Hall,8166 128 St,Surrey,Restaurant,49.15130553,-122.8673937
GEDS-6KQRHX,Bombay Banquet Hall,7475 135 St,Surrey,Restaurant,49.13828837,-122.8487816
ACAK-9C6MAB,Bon Accord Care Services Ltd,13350 Old Yale Rd,Surrey,Restaurant,49.18612305,-122.8526002
SWOD-A8TQQ4,Bon Ga Korean Restaurant,10356 Whalley Blvd,Surrey,Restaurant,49.19082227,-122.8417156
NDAA-9RFNPY,Bonny Castle Childrens Center,10706 148 St,Surrey,Restaurant,49.19706791,-122.8121047
A018373    ,Bonnycastle Montessori Day Care Food Service,14630 107A Ave,Surrey,Restaurant,49.19768616,-122.8170029
SHEN-ALTU9K,Boom Bee,15155 101 Ave,Surrey,Restaurant,49.18629935,-122.802234
SHEN-A2FSZ2,Booster Juice #232,10153 King George Blvd,Surrey,Restaurant,49.18592247,-122.8458478
SHEN-9YTTFZ,Booster Juice #278,12080 Nordel Way,Surrey,Restaurant,49.16109806,-122.8886041
NDAA-BC5MC3,Booster Juice #565,16555 Fraser Hwy,Surrey,Restaurant,49.15194416,-122.764104
JDSO-ACVPWV,Booster Juice (Fraser Hwy),18640 Fraser Hwy,Surrey,Restaurant,49.12546293,-122.7060946
GEDS-78JP6B,Booster Juice (Surrey),15355 24 Ave,Surrey,Restaurant,49.04583671,-122.7975044
NDAA-8R8V4H,Boston Pizza #020,6486 176 St,Surrey,Restaurant,49.12017053,-122.7345609
SHEN-AKHSUG,Boston Pizza #18 - Nordel Way,12060 Nordel Way,Surrey,Restaurant,49.1617169,-122.8878037
SHEN-AAKQEF,Boston Pizza #59,15980 Fraser Hwy,Surrey,Restaurant,49.15829516,-122.7819162
A019248    ,Boston Pizza #61,15125 100 Ave,Surrey,Restaurant,49.18440821,-122.803407
A016601    ,Boston Pizza #62,1956 152 St,Surrey,Restaurant,49.03760224,-122.8009599
A020094    ,Boston Pizza #73,7488 King George Blvd,Surrey,Restaurant,49.13853724,-122.8452552
DMIL-AC3L9S,Boulevard Shelter,10677 Whalley Blvd,Surrey,Restaurant,49.19652835,-122.8426635
ACAK-9BEUV9,Bourbon Street Grill (Guildford),10355 152 St,Surrey,Restaurant,49.19192585,-122.8042654
GEDS-6HPQAD,Bozzini's Restaurant (Surrey),13655 104 Ave,Surrey,Restaurant,49.19173246,-122.8437312
GEDS-6NLNUT,Starbucks Coffee #4620,18737 Fraser Hwy,Surrey,Restaurant,49.12463696,-122.7030165
GEDS-7D4VHM,Starbucks Coffee #4715,12830 96 Ave,Surrey,Restaurant,49.17696905,-122.8670944
GEDS-74DUWT,Starbucks Coffee #4775,6476 176 St,Surrey,Restaurant,49.12001039,-122.7345758
GEDS-77ZUHF,Starbucks Coffee #4811,15976 108 Ave,Surrey,Restaurant,49.19859349,-122.7794296
GEDS-7RRUYU,Starbucks Coffee #4865,2453 161A St,Surrey,Restaurant,49.04707987,-122.7761177
GEDS-7YSU36,Starbucks Coffee #4941,10153 King George Blvd,Surrey,Restaurant,49.18592247,-122.8458478
GEDS-7W7V3T,Starbucks Coffee #4976,12025 Nordel Way,Surrey,Restaurant,49.16237241,-122.8888952
HCAR-AWNVE9,Starbucks Coffee #52925,16010 24 Ave,Surrey,Restaurant,49.04523092,-122.7785676
NDAA-9P7SJ7,Starbucks Coffee Company #21565,9908 King George Blvd,Surrey,Restaurant,49.18334718,-122.8449947
HCAR-B6J27A,Steve Cobon Building (Site #3),13455 107A Ave,Surrey,Restaurant,49.19756634,-122.8495318
SHEN-AZMSSS,Steve's Poke Bar,9965 152 St,Surrey,Restaurant,49.18379312,-122.8012729
HCAR-BD9T8J,Steve's Poke Bar (Central City),10153 King George Blvd,Surrey,Restaurant,49.18592247,-122.8458478
GEDS-6M4MKD,Sub Garden #1,13482 72 Ave,Surrey,Restaurant,49.13339404,-122.848894
HCAR-BANTEG,Subkuchh Convenience Store,14390 64 Ave,Surrey,Restaurant,49.1184966,-122.82379
GEDS-6HKMMM,Subway #10105,12842 96 Ave,Surrey,Restaurant,49.17696476,-122.8665504
GEDS-7E5PUV,Subway #10452,1797 152 St,Surrey,Restaurant,49.03448175,-122.8014649
A017403    ,Subway #10985,17700 56 Ave,Surrey,Restaurant,49.1038986,-122.7326635
A016854    ,Subway #11642,15551 Fraser Hwy,Surrey,Restaurant,49.16241879,-122.7912586
HCAR-B9MRTP,Subway #13302,10070 152 St,Surrey,Restaurant,49.18541427,-122.8005953
A017303    ,Subway #13542,1623 128 St,Surrey,Restaurant,49.03162785,-122.8677244
A017427    ,Subway #15577,7750 128 St,Surrey,Restaurant,49.14358109,-122.8676534
GEDS-6ZXNY3,Subway #17012,14806 108 Ave,Surrey,Restaurant,49.19856812,-122.8121147
A018782    ,Subway #17467,10153 King George Blvd,Surrey,Restaurant,49.18592247,-122.8458478
A017856    ,Subway #22635,7550 King George Blvd,Surrey,Restaurant,49.13966312,-122.845258
GEDS-6MFQTB,Subway #23526,18775 Fraser Hwy,Surrey,Restaurant,49.12479487,-122.7020931
NDAA-9C4RHK,Subway #26341,2990 152 St,Surrey,Restaurant,49.05622799,-122.8008926
GEDS-672V2W,Subway #27914,10392 King George Blvd,Surrey,Restaurant,49.19137558,-122.8450972
RORS-64MN7M,Subway #27963,6468 King George Blvd,Surrey,Restaurant,49.1202975,-122.8451806
GEDS-7E5SWY,Subway #28648,15976 108 Ave,Surrey,Restaurant,49.19859349,-122.7794296
GEDS-673PBP,Subway #30456,13578 88 Ave,Surrey,Restaurant,49.16252604,-122.847019
RORS-65WV39,Subway #32336,12355 Pattullo Pl,Surrey,Restaurant,49.20327931,-122.8797988
GEDS-6VYU4Q,Subway #33525,17755 64 Ave,Surrey,Restaurant,49.11895346,-122.7314644
LCAL-6TFNHK,Subway #34848,2255 King George Blvd,Surrey,Restaurant,49.04293235,-122.790762
JDSO-AE8L4A,Subway #37799,3278 King George Blvd,Surrey,Restaurant,49.06115882,-122.8121525
GEDS-7LM26E,Subway #42292,2285 160 St,Surrey,Restaurant,49.04321227,-122.780068
GEDS-7W4PCC,Subway #44714,8050 King George Blvd,Surrey,Restaurant,49.14889075,-122.845255
SDFO-87ZM4C,Subway #47192,2725 192 St,Surrey,Restaurant,49.05220052,-122.6918188
SDFO-8HKPEW,Subway #50417,15905 Fraser Hwy,Surrey,Restaurant,49.15907102,-122.7817545
JDSO-ADTMFH,Subway #50726,14370 64 Ave,Surrey,Restaurant,49.11891376,-122.8242164
NDAA-8Y2SCD,Subway #52643,12477 88 Ave,Surrey,Restaurant,49.16395195,-122.8770559
NDAA-8PYQHK,Subway #52889,15122 72 Ave,Surrey,Restaurant,49.13351251,-122.8026091
NDAA-9MCRET,Subway #55162,14313 Crescent Rd,Surrey,Restaurant,49.06762733,-122.8250073
NDAA-93RQHM,Subway #55832,9538 120 St,Surrey,Restaurant,49.17636045,-122.8898581
ACAK-985U78,Subway #57253,13245 72 Ave,Surrey,Restaurant,49.13385503,-122.855425
SPLH-9KKTA9,Subway #60205,2525 160 St,Surrey,Restaurant,49.04757106,-122.7795291
SPLH-9LFRR7,Subway #61612,7350 120 St,Surrey,Restaurant,49.13641534,-122.8885061
SWOD-9UKPY4,Subway #63408,13737 96 Ave,Surrey,Restaurant,49.17720977,-122.842751
HCAR-B6K24K,Subway #6966,13479 108 Ave,Surrey,Restaurant,49.19909426,-122.8492961
GEDS-67NPGB,Subway #7665,12080 Nordel Way,Surrey,Restaurant,49.16109806,-122.8886041
SWOD-AFPRZP,Subway #7752,13745 72 Ave,Surrey,Restaurant,49.13376451,-122.8411269
ACAK-9BETLP,Subway (Guildford Mall),10355 152 St,Surrey,Restaurant,49.19192585,-122.8042654
NDAA-9NUPG4,Subway Sandwiches,19186 96 Ave,Surrey,Restaurant,49.17680764,-122.6910729
HCAR-B6KN9C,Sugar Patisserie,17767 64 Ave,Surrey,Restaurant,49.11898358,-122.7302435
GEDS-6TJMVF,Sullivan Heights Secondary School Food Service,6248 144 St,Surrey,Restaurant,49.11574585,-122.8229433
NDAA-ATHRDW,Sumerian Grill,10671A King George Blvd,Surrey,Restaurant,49.19632915,-122.8454273
GEDS-7UWVFC,Suncreek Village,13687 62 Ave,Surrey,Restaurant,49.115637,-122.842825
SWOD-APTQFP,Suncrest Retirement Community,2567 King George Blvd,Surrey,Restaurant,49.04856106,-122.7977828
HCAR-BAEUWY,Sunflower Catering,2643 128 St,Surrey,Restaurant,49.05053022,-122.867608
GEDS-6L7TYA,Sunflower Organics & Deli,12310 Beecher St,Surrey,Restaurant,49.05290119,-122.8807765
HCAR-AWTMSA,Sunny Dragon Restaurant,15988 Fraser Hwy,Surrey,Restaurant,49.15724844,-122.7795386
A020313    ,Sunny's Clydesdale Inn Pub,17630 56 Ave,Surrey,Restaurant,49.10399668,-122.7340981
RORS-66F2E2,Sunnyside Manor Food Service,15340 17 Ave,Surrey,Restaurant,49.03280525,-122.7973813
GEDS-66CSJH,Sunnyside Park Concession,15455 26 Ave,Surrey,Restaurant,49.04941155,-122.7944336
NDAA-9KDS9C,Branch 8 Canteen,2290 152 St,Surrey,Restaurant,49.04347012,-122.8009478
SWOD-A7W29Q,Branches Coffee House,1420 172 St,Surrey,Restaurant,49.02738135,-122.7421519
SDFO-8C524N,Bread Garden Catering,12117 86 Ave,Surrey,Restaurant,49.15976699,-122.8871212
SDFO-8MELM2,Breakthrough Lodge,2695 McBride Ave,Surrey,Restaurant,49.05179389,-122.8839529
GEDS-66JRRA,Brewster's Pub,7380 King George Blvd,Surrey,Restaurant,49.13673593,-122.8452107
ACAK-98UPSS,Bridgeview Community Centre,11475 126A St,Surrey,Restaurant,49.2114071,-122.8710549
NDAA-9PMT9A,Bright Path - Clayton Hills,7239 192 St,Surrey,Restaurant,49.13410743,-122.6911353
GEDS-7VFVD6,Brookside Lodge,19550 Fraser Hwy,Surrey,Restaurant,49.11414136,-122.680944
HCAR-AZ3U3W,Browns Socialhouse (Grandview),16030 24 Ave,Surrey,Restaurant,49.04521951,-122.7779787
SPLH-A9VTH3,Browns Socialhouse (Surrey Centre),9666 King George Blvd,Surrey,Restaurant,49.1787182,-122.8452586
NDAA-9E4S4N,Browns Socialhouse Semiahmoo,1601 152 St,Surrey,Restaurant,49.03116992,-122.8013088
A013601    ,Brownsville Bar Marine Pub,11940 Old Yale Rd,Surrey,Restaurant,49.20355939,-122.8917027
SDFO-8MYVG8,Bubble 88,10209 King George Blvd,Surrey,Restaurant,49.188066,-122.8460593
HCAR-BDGRHU,Bubble Tea Share Tea,9965 152 St,Surrey,Restaurant,49.18379312,-122.8012729
SHEN-AP8QHC,Bubble Waffle Cafe (Surrey),10090 152 St,Surrey,Restaurant,49.18575463,-122.8005815
GEDS-69FS3G,Bubble World (Surrey),10090 152 St,Surrey,Restaurant,49.18575463,-122.8005815
GEDS-7BLPWS,Bucky's West Coast Pizzeria,15562 24 Ave,Surrey,Restaurant,49.04542515,-122.7913767
HCAR-B7CRV4,Buona Pizza,13402 104 Ave,Surrey,Restaurant,49.19147564,-122.8508567
MARO-AZJM7Z,Burger King,10344 King George Blvd,Surrey,Restaurant,49.19041518,-122.8450705
A016919    ,Burger King #08302,7488 King George Blvd,Surrey,Restaurant,49.13853724,-122.8452552
GEDS-6S3UVB,Burger King #15397,12525 88 Ave,Surrey,Restaurant,49.16333834,-122.8757291
PNEL-8R5UF2,Burger King #18301,10153 King George Hwy,Surrey,Restaurant,49.18592247,-122.8458478
PNEL-8Q9REB,Burger King #18332,10355 120 St,Surrey,Restaurant,49.19095424,-122.8907569
SHEN-9PQSQD,Buy-Low Foods #080072 - Bakery/Deli,14865 108 Ave,Surrey,Restaurant,49.19944197,-122.809511
SPLH-ASQTDV,C-Lovers Fish and Chips (South Surrey),2655 King George Blvd,Surrey,Restaurant,49.05031497,-122.7999079
SHEN-A79QF4,Cabizerra Bistro,14775 108 Ave,Surrey,Restaurant,49.19888515,-122.813407
GEDS-6X9W53,Cactus Club Cafe (South Point),15079 32 Ave,Surrey,Restaurant,49.06028082,-122.8049247
SDFO-8MLMNB,Cafe Central,10350 University Dr,Surrey,Restaurant,49.19066593,-122.8494603
ACAK-8VHNXU,Cafe Madras,8381 128 St,Surrey,Restaurant,49.15512434,-122.8693571
HCAR-B7YVJY,Cafe Nelly,13401 108 Ave,Surrey,Restaurant,49.1990937,-122.8502549
SDFO-8MXMMA,Calgary Sweets,7928 128 St,Surrey,Restaurant,49.14675376,-122.8676651
GEDS-7X3VKR,Calvary Christian Church,16293 104 Ave,Surrey,Restaurant,49.19200637,-122.7708173
GEDS-66ZW24,Calypso Foods,8322 130 St,Surrey,Restaurant,49.15374911,-122.8620364
SWOD-9X7QKV,Camy's Pizza,12849 96 Ave,Surrey,Restaurant,49.1773134,-122.8659414
A019458    ,Canadian 2 For 1 Pizza (152nd St),10070 152 St,Surrey,Restaurant,49.18541427,-122.8005953
GEDS-6ZNPG3,Canadian 2 For 1 Pizza (72nd Ave),13791 72 Ave,Surrey,Restaurant,49.13426936,-122.8390605
GEDS-5Z6MPG,Canadian Singh Sabha Gurdwara Society,8115 132 St,Surrey,Restaurant,49.15020581,-122.8571115
PNEL-8QKN49,Canuel Caterers - Agriplex,6050A 176 St,Surrey,Restaurant,49.11225879,-122.7347282
PNEL-8QKN5F,Canuel Caterers - Stetson Bowl,6050A 176 St,Surrey,Restaurant,49.11225879,-122.7347282
HCAR-BA2VF7,Canuel Caterers-Life Labs (Surrey),7455 130 St,Surrey,Restaurant,49.13852906,-122.8620173
SWOD-AHFN3G,Captain Meat & Poultry Ltd (72nd Ave),13753 72 Ave,Surrey,Restaurant,49.13377078,-122.8405811
GEDS-7CVR6H,CareLife Fleetwood - Food Service,8265 159 St,Surrey,Restaurant,49.15269221,-122.7820223
SHEN-A6LW3S,Carl's Jr. Restaurants,10355 152 St,Surrey,Restaurant,49.19192585,-122.8042654
HCAR-ATQP7E,Castro's Tacos,13646 Grosvenor Rd,Surrey,Restaurant,49.19962849,-122.8440263
NDAA-8WQS48,Catering Visions,13375 115 Ave,Surrey,Restaurant,49.21175112,-122.8517885
HCAR-B6HSJ7,Caveman Pizza,15355 24 Ave,Surrey,Restaurant,49.04583671,-122.7975044
A013627    ,Cedar Grove Child Development Centre Food Service,10330 144 St,Surrey,Restaurant,49.19047368,-122.8228235
SPLH-9P8MJG,CEFA - Fleetwood,16050 Fraser Hwy,Surrey,Restaurant,49.15664752,-122.777453
NDAA-9QXQR7,Cefa Early Learning,5446 152 St,Surrey,Restaurant,49.10133068,-122.8007367
NDAA-9E9SK8,Cefa Guildford,10172 152A St,Surrey,Restaurant,49.18732171,-122.7992571
NDAA-AC7QX3,CEFA South Surrey/Morgan Crossing,15355 24 Ave,Surrey,Restaurant,49.04583671,-122.7975044
GEDS-65BNJH,Celebration & Rainbow Manor Food Service,10130 159A St,Surrey,Restaurant,49.18640578,-122.7799167
HCAR-B7KUTN,Central Cafe,10252 City Pky,Surrey,Restaurant,49.18909542,-122.8473918
GEDS-66KMAS,Central City Brewing Company,13450 102 Ave,Surrey,Restaurant,49.18791904,-122.8487665
NDAA-ATHQYX,Centric Culinary Inc,18394 Fraser Hwy,Surrey,Restaurant,49.1287315,-122.7132146
SHEN-9Z5V5E,Chaba Thai Restaurant,5723 176 St,Surrey,Restaurant,49.10638755,-122.7351922
SHEN-9YTPMB,Chan's Kitchen,15277 100 Ave,Surrey,Restaurant,49.1844401,-122.7987902
SHEN-9W7N2C,Charcoal & Woodz,17530 64 Ave,Surrey,Restaurant,49.11854087,-122.7372087
GEDS-84RSPW,Charley's Philly Steaks,10153 King George Blvd,Surrey,Restaurant,49.18592247,-122.8458478
SHEN-B5KPPF,Chatime,2950 King George Blvd,Surrey,Restaurant,49.0556839,-122.8055577
SHEN-A63NQL,Chatime,10255 King George Blvd,Surrey,Restaurant,49.18915003,-122.84575
SPLH-AUXP4D,Cheema Bros Meat Shop,12477 88 Ave,Surrey,Restaurant,49.16395195,-122.8770559
ACAK-8WDT8J,Chef's Kebab Restaurant,16225 Fraser Hwy,Surrey,Restaurant,49.15490374,-122.7720007
SDFO-8P2P32,Sunrise Cafe,13458 107A Ave,Surrey,Restaurant,49.1971863,-122.849782
A016851    ,Sunshine Place Food Service,1504 160 St,Surrey,Restaurant,49.02933335,-122.7789511
NDAA-9NVPPU,Super Pho VN Cuisine,9544 120 St,Surrey,Restaurant,49.17643548,-122.8898637
GEDS-7HVQF2,Super Vege Pizza,15299 68 Ave,Surrey,Restaurant,49.12656472,-122.7992341
GEDS-65GQZK,Superior Produce,6350 120 St,Surrey,Restaurant,49.11815677,-122.8900634
SHEN-AP8MCX,Surrey - Punjab Dhaba,12830 96 Ave,Surrey,Restaurant,49.17696905,-122.8670944
A019780    ,Surrey Arts Centre (Bar Concession),13750 88 Ave,Surrey,Restaurant,49.16216661,-122.842413
A019546    ,Surrey Canadian Baseball (Lionel Courchene Park),99 Ave & 154 St,Surrey,Restaurant,49.18255527,-122.7953873
GEDS-6KSUZ7,Surrey Catering,10528 City Pky,Surrey,Restaurant,49.19397122,-122.8479405
GEDS-84RPVZ,Surrey Damiko Sushi,2950 King George Blvd,Surrey,Restaurant,49.0556839,-122.8055577
SWOD-9YWMPT,Surrey Golf Club Bar,7700 168 St,Surrey,Restaurant,49.14223836,-122.7563155
SWOD-9YWNBN,Surrey Golf Club Kitchen,7700 168 St,Surrey,Restaurant,49.14223836,-122.7563155
GEDS-6BENH6,Surrey House of Grace,13557 King George Blvd,Surrey,Restaurant,49.1999235,-122.8464752
RORS-67JTWY,Surrey Memorial Hospital #63229 (Java Express),13750 96 Ave,Surrey,Restaurant,49.1768222,-122.8424406
HCAR-B6VVH9,Surrey Memorial Hospital - Tim Horton's #8450,13750 96 Ave,Surrey,Restaurant,49.1768222,-122.8424406
RORS-67JU29,Surrey Memorial Hospital Cafeteria #63229,13750 96 Ave,Surrey,Restaurant,49.1768222,-122.8424406
A018835    ,Surrey Memorial Hospital Food Service,13750 96 Ave,Surrey,Restaurant,49.1768222,-122.8424406
A016986    ,Surrey Pretrial Centre #60614,14323 57 Ave,Surrey,Restaurant,49.10680826,-122.826056
SHEN-9SSQ4C,Surrey Taxation Centre Cafe #63309,9755 King George Blvd,Surrey,Restaurant,49.17954334,-122.8459247
NDAA-9EBMZR,Surrey Urban Mission Society,10776 King George Blvd,Surrey,Restaurant,49.19846609,-122.8449487
HCAR-AWN28U,Surrey Veggi Pizza & Sub,8077 King George Blvd,Surrey,Restaurant,49.1494583,-122.8460133
SPLH-A9UT9Z,Sushi California (Surrey),10320 152A St,Surrey,Restaurant,49.18995301,-122.7992434
SWOD-AHPUXZ,Sushi King George,10344 King George Hwy,Surrey,Restaurant,49.19041518,-122.8450705
PNEL-8SCPDC,Sushi King House,17617 56 Ave,Surrey,Restaurant,49.10429566,-122.7343648
GEDS-6L7MRP,Sushi Line Japanese Restaurant,7380 King George Blvd,Surrey,Restaurant,49.13673593,-122.8452107
NDAA-9FLQ9K,Sushi Plus,10777 University Dr,Surrey,Restaurant,49.19836169,-122.8510966
HCAR-B9RRK2,Sushi Tengoku,10194 152 St,Surrey,Restaurant,49.1876798,-122.8006362
NDAA-9ENPNZ,Sushi Topia,6350 120 St,Surrey,Restaurant,49.11815677,-122.8900634
PNEL-8QMN5H,Sushi Train Restaurant,15380 102A Ave,Surrey,Restaurant,49.18859323,-122.7962524
NDAA-8YKME8,Sushi Zen,14839 108 Ave,Surrey,Restaurant,49.19943029,-122.8107183
HCAR-ASNTAD,Swagat Indian Sweets and Restaurant,9547 152 St,Surrey,Restaurant,49.17590414,-122.8012833
ACAK-9BETE2,Sweet Factory (Surrey),10355 152 St,Surrey,Restaurant,49.19192585,-122.8042654
HCAR-AW6REQ,Sweets 64,14330 64 Ave,Surrey,Restaurant,49.11851305,-122.825215
ACAK-8UXTZM,Swiss Chalet Rotisserie & Grill #1257,7488 King George Blvd,Surrey,Restaurant,49.13853724,-122.8452552
A019703    ,T&T (Surrey) Bakery,15277 100 Ave,Surrey,Restaurant,49.1844401,-122.7987902
GEDS-6NLQG9,T&T Supermarket #13 - Bakery,10153 King George Blvd,Surrey,Restaurant,49.18592247,-122.8458478
GEDS-6NLQMW,T&T Supermarket #13 - Hot Deli Section,10153 King George Blvd,Surrey,Restaurant,49.18592247,-122.8458478
GEDS-6NLQRN,T&T Supermarket #13 - Sushi Section,10153 King George Blvd,Surrey,Restaurant,49.18592247,-122.8458478
HCAR-BAERRU,T&T Supermarket (Surrey) Deli/Kitchen Dept.,15277 100 Ave,Surrey,Restaurant,49.1844401,-122.7987902
JDSO-ACRPBU,Taco Del Mar #1071,18775 Fraser Hwy,Surrey,Restaurant,49.12479487,-122.7020931
SWOD-A3GLTE,Taco Del Mar (Surrey),1797 152 St,Surrey,Restaurant,49.03448175,-122.8014649
NDAA-9P9TD5,Taco Time (120th St),8942 120 St,Surrey,Restaurant,49.16539026,-122.8900786
KSMH-AQCTH5,Tae Yang Gak Restaurant,10330 152 St,Surrey,Restaurant,49.19027016,-122.8000928
SWOD-APVTT6,Taj Park Convention Centre,8580 132 St,Surrey,Restaurant,49.15857733,-122.8554806
NDAA-9NUPRB,Take Five Cafe,13450 104 Ave,Surrey,Restaurant,49.19146408,-122.8488989
A017154    ,Tamanawis Secondary School Cafeteria,12600 66 Ave,Surrey,Restaurant,49.1227153,-122.8724259
LCAL-6TFPM4,Tap Urban Cafe & Lounge,15350 34 Ave,Surrey,Restaurant,49.06361005,-122.7969888
GEDS-7A2PK4,Taste of Africa,10663 King George Blvd,Surrey,Restaurant,49.19643274,-122.845567
SHEN-AZUMAU,Taste of Himalayas,7115 138 St,Surrey,Restaurant,49.1320397,-122.8391811
SPLH-ASQP6M,Taste of Pho,13979 104 Ave,Surrey,Restaurant,49.19166232,-122.8346494
JDSO-ACPLHD,Taste Of Punjab Restaurant,10009 Whalley Blvd,Surrey,Restaurant,49.18485188,-122.8434739
NDAA-9A6NSR,Tastefully Yours By Jeff,19329 Enterprise Way,Surrey,Restaurant,49.10834689,-122.6878435
A019861    ,Tasters Bakery,10090 152 St,Surrey,Restaurant,49.18575463,-122.8005815
NDAA-9H7NNW,Tasty Donair & Company Inc.,13711 72 Ave,Surrey,Restaurant,49.13375945,-122.8425601
PNEL-8RBQFL,Tasty Sandwich,14351 104 Ave,Surrey,Restaurant,49.19172759,-122.8241835
PNEL-8SNLX7,Texx Big Burger,14783 108 Ave,Surrey,Restaurant,49.19888028,-122.8131251
SDFO-8LQSRL,Thai By Thai Restaurant,9164 120 St,Surrey,Restaurant,49.16981011,-122.8899778
NDAA-9C3S9V,Thai Express,10355 152 St,Surrey,Restaurant,49.19192585,-122.8042654
SDFO-8GGQ3X,Thai Express (Central City),10153 King George Blvd,Surrey,Restaurant,49.18592247,-122.8458478
SWOD-AQHT2B,Thali Sweets and Restaurant,15932 96 Ave,Surrey,Restaurant,49.17674494,-122.7808194
NDAA-9GRQLB,The Barrel Public House,7115 138 St,Surrey,Restaurant,49.1320397,-122.8391811
HCAR-BA9R6L,The Bean Factory,18812 96 Ave,Surrey,Restaurant,49.17684416,-122.7008886
NDAA-97WT8K,The Cabin,12302 Beecher St,Surrey,Restaurant,49.05286101,-122.8809782
A019554    ,Cherington Place Food Service,13453 111A Ave,Surrey,Restaurant,49.20548586,-122.8492984
NDAA-9EWU8F,Chili House Restaurant,19571 Fraser Hwy,Surrey,Restaurant,49.11450481,-122.680635
HCAR-BCGPK4,Chilli Bar,2755 192 St,Surrey,Restaurant,49.05247451,-122.6918171
A019021    ,China Village Wonton House,9644 King George Blvd,Surrey,Restaurant,49.17776025,-122.845297
SHEN-A7LVFF,Chipotle Mexican Grill,10355 152 St,Surrey,Restaurant,49.19192585,-122.8042654
GEDS-5Y7VCY,Choice Billiards & Cafe,7728 128 St,Surrey,Restaurant,49.1427663,-122.8676693
MARO-AZ3TU9,Choices Market (#787) - Deli,3248 King George Blvd,Surrey,Restaurant,49.06103122,-122.8119881
SHEN-A6QNHL,Chongqing Restaurant,8220 120 St,Surrey,Restaurant,49.15256867,-122.8900447
SPLH-9N6RN7,Chopped Leaf,15775 Croydon Dr,Surrey,Restaurant,49.04768716,-122.784927
KSMH-AU6VQG,Chopped Leaf,9900 King George Hwy,Surrey,Restaurant,49.18235922,-122.844907
A018928    ,Chrysalis 22 Food Service,14122 113 Ave,Surrey,Restaurant,49.20750257,-122.8309821
A018912    ,Chrysalis 24 Food Service,14124 113 Ave,Surrey,Restaurant,49.20750257,-122.8309821
SPLH-98CNQM,Chui Hong Korean Chinese Restaurant,15976 108 Ave,Surrey,Restaurant,49.19859349,-122.7794296
A016526    ,Church's Chicken #1715,10542 King George Blvd,Surrey,Restaurant,49.19418298,-122.8449877
A013656    ,Church's Chicken #3630,8434 120 St,Surrey,Restaurant,49.15659098,-122.8900795
A017564    ,Church's Chicken #4475,14877 108 Ave,Surrey,Restaurant,49.19944932,-122.8092791
A018178    ,Church's Chicken #5621,15318 Fraser Hwy,Surrey,Restaurant,49.16467278,-122.7982801
HCAR-B7EQE5,Chutney's Indian Grill,16120 24 Ave,Surrey,Restaurant,49.04472384,-122.776141
GEDS-65QN9E,Cineplex Odeon,12161 72 Ave,Surrey,Restaurant,49.13501244,-122.8865012
SPLH-9KKNN4,Cinnzeo,10355 152 St,Surrey,Restaurant,49.19192585,-122.8042654
SHEN-9T5QBB,Citrus Bar & Grill,10410 158 St,Surrey,Restaurant,49.19204926,-122.7839164
SHEN-B4GSRS,City Centre Youth Hub (CCYH),10453 Whalley Blvd,Surrey,Restaurant,49.19257695,-122.8423467
HCAR-AWDUMS,Civic Hotel - Catering Kitchen 2nd Floor,13483 103rd Ave,Surrey,Restaurant,49.19029297,-122.8481079
A017441    ,Classic OP Pizza,3189 King George Blvd,Surrey,Restaurant,49.05963853,-122.8116169
HCAR-B55RB5,Clayton Gate Pizza,6820 188 St,Surrey,Restaurant,49.1266045,-122.701433
A017685    ,Clayton Heights Secondary School Cafeteria,7003 188 St,Surrey,Restaurant,49.12921586,-122.7019142
ACAK-99FQMH,Clover Heights Retirement Home,6209 184 St,Surrey,Restaurant,49.11514003,-122.7128512
A017390    ,Clover Hill Market,5996 184 St,Surrey,Restaurant,49.11122362,-122.7123725
HCAR-B6H25D,Clover Lanes,5814 176A St,Surrey,Restaurant,49.10794053,-122.7334718
GEDS-7ANM86,Clover Ridge Pizza,5989 168 St,Surrey,Restaurant,49.11117004,-122.7568384
A016814    ,Cloverdale Bakery,5780 176A St,Surrey,Restaurant,49.10748286,-122.7334884
SDFO-8LUUGU,Cloverdale Country Farms - Deli,5688 168 St,Surrey,Restaurant,49.10517451,-122.7561977
A016586    ,Cloverdale Ice Arena,6090 176 St,Surrey,Restaurant,49.11322319,-122.7343657
NDAA-9YLSGB,Cloverdale Minor Softball Association Concession #2,6330 168 St,Surrey,Restaurant,49.11721874,-122.7564351
SDFO-8GRKRZ,Cloverdale Recreation Centre,6188 176 St,Surrey,Restaurant,49.11519194,-122.7344604
A018157    ,Coast & Country Diner,17608 56 Ave,Surrey,Restaurant,49.10399109,-122.7346805
HCAR-B9MRLV,COBS Bread #9066,5717 152 St,Surrey,Restaurant,49.10654594,-122.8014385
KHON-6RKPB6,COBS Bread (152nd St),2990 152 St,Surrey,Restaurant,49.05622799,-122.8008926
SHEN-AZ7U52,COBS Bread (16th Ave),12857 16 Ave,Surrey,Restaurant,49.03150395,-122.8658505
SDFO-88VM3L,COBS Bread (Fraser Hwy),18775 Fraser Hwy,Surrey,Restaurant,49.12479487,-122.7020931
KSMH-ARJTF9,COBS Bread (Guildford Town Centre),10355 152 St,Surrey,Restaurant,49.19192585,-122.8042654
SHEN-B55NWZ,COBS Bread (Semiahmoo),1711 152 St,Surrey,Restaurant,49.0331143,-122.801669
HCAR-BD2RZV,Coco Fresh Tea & Juice,10153 King George Blvd,Surrey,Restaurant,49.18592247,-122.8458478
HCAR-AW6UF4,CoCo Fresh Tea & Juice,10355 152 St,Surrey,Restaurant,49.19192585,-122.8042654
SHEN-AP8QAU,Coffee Monster,15285 101 Ave,Surrey,Restaurant,49.18638766,-122.7986747
A019462    ,Come Share Centre (26th Ave),15008 26 Ave,Surrey,Restaurant,49.04891781,-122.8041991
A020331    ,Come Share Centre (68th Ave),13855 68 Ave,Surrey,Restaurant,49.12674536,-122.8389384
GEDS-66K2CZ,Community Access-Arcus Community Resources Food Service,12388 Pattullo Pl,Surrey,Restaurant,49.20246838,-122.8798606
SDFO-896MB7,Contracted Food Service Provider,5500 180 St,Surrey,Restaurant,49.10172376,-122.7235378
SHEN-APFUUQ,Cooking Secret Restaurant,2982 152 St,Surrey,Restaurant,49.05569682,-122.8009088
HCAR-BD4LQ3,Corner Cafe,19415 56 Ave,Surrey,Restaurant,49.10463067,-122.6852154
SDFO-8L4T27,Corporate Classic Caterers,14033 92 Ave,Surrey,Restaurant,49.17027007,-122.8323829
JDSO-ACMLL6,Corporate Classic Caterers (Nav Canada),7421 135 St,Surrey,Restaurant,49.13725773,-122.8486517
SWOD-A58ML4,Corporate Classics Caterers,14123 92 Ave,Surrey,Restaurant,49.1702696,-122.8310109
GEDS-6N4UKL,Costco Wholesale (Surrey) Snack Bar,7423 King George Blvd,Surrey,Restaurant,49.13844942,-122.8459769
HCAR-BCZV29,Cotto Al Mare,2728 O'Hara Lane,Surrey,Restaurant,49.05251043,-122.8848755
SHEN-APFPYJ,Cranked,16780 64 Ave,Surrey,Restaurant,49.11868842,-122.7575345
NDAA-ALQN84,Crawford Manor,10010 128 St,Surrey,Restaurant,49.18468154,-122.8673878
GEDS-72NPVF,Creekside Withdrawal Management Centre,13740 94A Ave,Surrey,Restaurant,49.17451181,-122.84205
A017534    ,Crescent Beach Bistro,12251 Beecher St,Surrey,Restaurant,49.05283008,-122.8824041
A016603    ,Crescent Beach Yacht Club,12555 Crescent Rd,Surrey,Restaurant,49.05628746,-122.8713307
HCAR-BDSNEP,Crescent Coffee House,12219 Beecher St,Surrey,Restaurant,49.05263184,-122.8832667
GEDS-6E3N2T,Crescent Gardens Food Service,1222 King George Blvd,Surrey,Restaurant,49.02445374,-122.76679
SHEN-A7GRE8,The Carvery,2430 King George Blvd,Surrey,Restaurant,49.04649485,-122.7941072
SHEN-A7PRKW,The Clayton Public House,5640 188 St,Surrey,Restaurant,49.10544931,-122.7013147
GEDS-7BRPSU,The Derby Bar and Grill,17637 1 Ave,Surrey,Restaurant,49.00418376,-122.7336964
GEDS-7NPR5Q,The Ellendale Program (Liz's House),11187 Ellendale Dr,Surrey,Restaurant,49.20612691,-122.8118461
GEDS-6BEQNQ,The Gateway,13787 100 Ave,Surrey,Restaurant,49.18446233,-122.8403966
SHEN-APFTAF,The Gourmet Lunch Ladies,10727 135A St,Surrey,Restaurant,49.19753024,-122.8472596
ACAK-984PZN,The Greek Corner,7218 King George Blvd,Surrey,Restaurant,49.1343323,-122.8452132
SHEN-ALXSDR,The Guildford Shelter,14716 104 Ave,Surrey,Restaurant,49.19127333,-122.8142007
NDAA-8ZRP23,The Henry Public House,5708 176 St,Surrey,Restaurant,49.10624944,-122.7347488
NDAA-8ZRPYH,The Henry Public House - Bar,5708 176 St,Surrey,Restaurant,49.10624944,-122.7347488
SHEN-AP8NDS,The Jin Sushi Japanese Restaurant,7360 137 St,Surrey,Restaurant,49.13640026,-122.8426389
SWOD-9Y2R2N,The Lookout Emergency Aid Society,10667 135A St,Surrey,Restaurant,49.19637938,-122.8470568
SHEN-ATTUV4,The Madinaz Restaurant,9320 120 St,Surrey,Restaurant,49.17223237,-122.8899151
SWOD-AMVU3K,The Modern General Store Inc,3388 Rosemary Heights Cres,Surrey,Restaurant,49.06333416,-122.7981734
GEDS-7N9MKV,The Palms Bistro,9008 158 St,Surrey,Restaurant,49.16662849,-122.7833718
SHEN-BBWR8Q,The Pantry Restaurant #04,10355 152 St,Surrey,Restaurant,49.19192585,-122.8042654
GEDS-6WMPUQ,The Phoenix Centre Food Service,13686 94A Ave,Surrey,Restaurant,49.17453209,-122.8433061
NDAA-8YCRM6,The Residence At Clayton Heights,18788 71 Ave,Surrey,Restaurant,49.13176633,-122.7026775
GEDS-85ZPJW,The Residence at Morgan Heights - Bistro,15955 27 Ave,Surrey,Restaurant,49.05117841,-122.779875
GEDS-7UWV6W,The Residence at Morgan Heights - Main Kitchen,15955 27 Ave,Surrey,Restaurant,49.05117841,-122.779875
PGOO-66GTL6,The Roost,13582 68 Ave,Surrey,Restaurant,49.12608084,-122.8460389
GEDS-7R4QDM,The Royal King Palace & Convention Centre,8158 128 St,Surrey,Restaurant,49.15125369,-122.8651168
SHEN-9T8MWG,The Rustic Rooster,5723 176 St,Surrey,Restaurant,49.10638755,-122.7351922
SHEN-ABUP3P,The Samosa House,12837 88 Ave,Surrey,Restaurant,49.16276072,-122.8671874
SHEN-9QASZ2,The Taphouse,15330 102A Ave,Surrey,Restaurant,49.1886146,-122.7974933
SHEN-AZMPAU,The Village Barbeque Ltd,9526 120 St,Surrey,Restaurant,49.17621248,-122.8898678
SWOD-AFXQQ6,The Whole Bowl Health Bar,15345 56 Ave,Surrey,Restaurant,49.10525524,-122.7976834
GEDS-82CUR9,Thrifty Foods #9472 - Deli & Cheese Section,15745 Croydon Dr,Surrey,Restaurant,49.0480924,-122.7858793
GEDS-82CUW2,Thrifty Foods #9472 - Meat & Seafood Section,15745 Croydon Dr,Surrey,Restaurant,49.0480924,-122.7858793
SWOD-AHGN6F,Tim Horton's #106868,9900 King George Blvd,Surrey,Restaurant,49.18235922,-122.844907
NDAA-92QN5J,Tim Horton's (RCMP),14200 Green Timbers Way,Surrey,Restaurant,49.17966902,-122.8299145
NDAA-A6HSNT,Tim Hortons #1095,16033 108 Ave,Surrey,Restaurant,49.1989669,-122.7777544
A018381    ,Tim Hortons #1377,2360 King George Blvd,Surrey,Restaurant,49.04510073,-122.7924675
A018397    ,Tim Hortons #2172,12169 72 Ave,Surrey,Restaurant,49.13422021,-122.8858613
A018399    ,Tim Hortons #2173,3077 152 St,Surrey,Restaurant,49.05767913,-122.8021125
GEDS-6A5QDU,Tim Hortons #2530,7195 King George Blvd,Surrey,Restaurant,49.13306413,-122.8459607
GEDS-6A2PN7,Tim Hortons #2608,10320 152 St,Surrey,Restaurant,49.19010913,-122.8005972
SODN-65HTBW,Tim Hortons #2656,12110 Nordel Way,Surrey,Restaurant,49.16168908,-122.8869405
GEDS-6GTRF5,Tim Hortons #2783,8215 166 St,Surrey,Restaurant,49.15143096,-122.7619716
GEDS-6HLTS7,Tim Hortons #2816,10376 152 St,Surrey,Restaurant,49.19106581,-122.8005237
GEDS-6MVPBZ,Tim Hortons #2889,17888 56 Ave,Surrey,Restaurant,49.10394533,-122.7267465
GEDS-6VRPUD,Tim Hortons #2956,14445 64 Ave,Surrey,Restaurant,49.11930582,-122.8226847
GEDS-6WLREY,Tim Hortons #3016,17695 64 Ave,Surrey,Restaurant,49.11896956,-122.7328646
GEDS-76LQ6B,Tim Hortons #3077,18682 Fraser Hwy,Surrey,Restaurant,49.12458427,-122.704412
GEDS-775V2T,Tim Hortons #3083,7288 King George Blvd,Surrey,Restaurant,49.13492356,-122.845142
A018984    ,Tim Hortons #311,15551 Fraser Hwy,Surrey,Restaurant,49.16241879,-122.7912586
GEDS-7HQPTW,Tim Hortons #3225,2355 160 St,Surrey,Restaurant,49.04439297,-122.781432
GEDS-7HVTQV,Tim Hortons #3226,6422 120 St,Surrey,Restaurant,49.11967428,-122.8899621
GEDS-7M6PXX,Tim Hortons #3304,16141 24 Ave,Surrey,Restaurant,49.04581186,-122.7757568
GEDS-85SR8F,Tim Hortons #3676,19218 96 Ave,Surrey,Restaurant,49.1767759,-122.6900809
NDAA-9C5T5J,Tim Hortons #4373 Country Woods,3233 176 St,Surrey,Restaurant,49.06053523,-122.7358475
ACAK-9BEV2L,Tim Hortons #4457,10355 152 St,Surrey,Restaurant,49.19192585,-122.8042654
SYOG-5M562C,Tim Hortons #446,1767 152 St,Surrey,Restaurant,49.03378679,-122.801643
NDAA-93UU5A,Tim Hortons #4510,2711 192 St,Surrey,Restaurant,49.05150946,-122.6918208
RORS-5Y9NE5,Tim Hortons #458,8080 120 St,Surrey,Restaurant,49.15013643,-122.8900135
ACAK-985T7J,Tim Hortons #5038,12467 88 Ave,Surrey,Restaurant,49.16356002,-122.8778743
SPLH-A9VMPY,Tim Hortons #6270,19171 Fraser Hwy,Surrey,Restaurant,49.11948505,-122.6915
HCAR-AUHPDL,Tim Hortons #7386,12941 115 Ave,Surrey,Restaurant,49.21147665,-122.8624346
A019531    ,Tim Hortons #87,9595 King George Blvd,Surrey,Restaurant,49.17662318,-122.8462154
SDFO-89RTBJ,Tim Hortons (Surrey Campus),12666 72 Ave,Surrey,Restaurant,49.13362169,-122.8713254
SDFO-8LHV7L,Timbergrove Kitchen,13922 101 Ave,Surrey,Restaurant,49.18577846,-122.8362586
GEDS-7XGU9Z,Time Out - Baskin Robbins,6351 152 St,Surrey,Restaurant,49.11798242,-122.8012761
GEDS-7XGUJU,Time Out - California Gourmet Pizza,6351 152 St,Surrey,Restaurant,49.11798242,-122.8012761
SPLH-A9UTKA,Crescent Harbour House Restaurant,12233 Beecher St,Surrey,Restaurant,49.05269948,-122.8830464
SYOG-5M59J9,CRESST South Fraser,13525 98 Ave,Surrey,Restaurant,49.1806863,-122.8476178
HCAR-B52TJM,Crispy Falafel,9627 128 St,Surrey,Restaurant,49.17775768,-122.8682156
MARO-AWVUPN,Crispy Falafel,16050 24 Ave,Surrey,Restaurant,49.04470344,-122.7776793
SPLH-987TB4,Crispy Falafel (Surrey),2408 King George Blvd,Surrey,Restaurant,49.04586836,-122.7933292
GEDS-83VU7U,Crown Palace Banquet Hall,12025 Nordel Way,Surrey,Restaurant,49.16237241,-122.8888952
A018956    ,Croydon Villa Food Service,2828 Croydon Dr,Surrey,Restaurant,49.05339555,-122.7931973
HCAR-AVKSJF,Crustos Pizza & Wings,8910 120 St,Surrey,Restaurant,49.16515223,-122.8900695
SHEN-A85RZ3,Crystal Ball Room/Crystal Banquet Hall,12888 80 Ave,Surrey,Restaurant,49.14799486,-122.8660483
HCAR-AZVMLX,Cuatro Coffee,9014 152 St,Surrey,Restaurant,49.16697429,-122.7992408
MARO-B2LMZC,Cuisine and Company,2643 128 St,Surrey,Restaurant,49.05053022,-122.867608
NDAA-9B2SJL,Cultures,10153 King George Blvd,Surrey,Restaurant,49.18592247,-122.8458478
SHEN-9ZGSYW,Cupcakes (Surrey),10355 152 St,Surrey,Restaurant,49.19192585,-122.8042654
SHEN-A7GVK6,Curry & Kabab Indian Cuisine,7500 120 St,Surrey,Restaurant,49.13913715,-122.8900684
SHEN-B32QUF,Curry Bistro,13448 108 Ave,Surrey,Restaurant,49.19874962,-122.8493594
NDAA-9H3PTE,Curry Indian Cuisine,10355 152 St,Surrey,Restaurant,49.19192585,-122.8042654
GEDS-7ELNSQ,Czorny Alzheimer Centre - Main Kitchen,16850 66 Ave,Surrey,Restaurant,49.12241117,-122.7550866
A019953    ,D-Plus Pizza (152nd Ave),9547 152 St,Surrey,Restaurant,49.17590414,-122.8012833
MARO-AWUQ2U,D-Plus Pizza (192nd St),7228 192 St,Surrey,Restaurant,49.13415694,-122.6904718
GEDS-5Z5PM3,D-Plus Pizza (88th Ave),13588 88 Ave,Surrey,Restaurant,49.16252802,-122.8468646
SDFO-8ESVZE,D-Plus Pizza (Fraser Hwy),15933 Fraser Hwy,Surrey,Restaurant,49.15909621,-122.78079
ACAK-8UASYF,D-Plus Pizza (King George Blvd),10207 King George Blvd,Surrey,Restaurant,49.18799242,-122.8460614
GEDS-66RRQQ,Dad's Bistro,12411 King George Blvd,Surrey,Restaurant,49.20660045,-122.8779839
JDSO-ACANKX,Dad's Donair & Specialty Foods,15989 108 Ave,Surrey,Restaurant,49.19896015,-122.7792982
SPLH-9P7SUH,Dae-Ji,15940 Fraser Hwy,Surrey,Restaurant,49.15704507,-122.7809649
GEDS-7WDP3L,Dairy Queen #26978,14741 108 Ave,Surrey,Restaurant,49.19889005,-122.8138799
MARO-AZEUHB,Dairy Queen #27001,9436 King George Blvd,Surrey,Restaurant,49.17441007,-122.8455239
A017823    ,Dairy Queen #27109,7115 138 St,Surrey,Restaurant,49.1320397,-122.8391811
ACAK-8VATBP,Dairy Queen #27172,9110 152 St,Surrey,Restaurant,49.16855491,-122.8010679
GEDS-7BJQJ5,Dairy Queen #27173,2071 152 St,Surrey,Restaurant,49.03961998,-122.801451
GEDS-744NQ8,Dairy Queen #27268,17720 56 Ave,Surrey,Restaurant,49.10399592,-122.7318293
GEDS-7VRLJL,Dairy Queen #27348,5630 152 St,Surrey,Restaurant,49.10523388,-122.8004471
NDAA-9BHSZE,Dairy Queen Treat Centre Guildford,10355 152 St,Surrey,Restaurant,49.19192585,-122.8042654
A017345    ,Danica's Bistro,1959 152 St,Surrey,Restaurant,49.03727504,-122.8014669
SHEN-AGNP8P,Darbar Sri Guru Granth Sahibji Surrey,8820 168 St,Surrey,Restaurant,49.16347571,-122.7563146
SWOD-9YXP6Z,Davids Tea (Morgan Crossing),15755 Croydon Dr,Surrey,Restaurant,49.04581558,-122.7829362
SWOD-AHBPCH,Dawood's Meat & Pizzaria,14620 64 Ave,Surrey,Restaurant,49.11892615,-122.8170991
SPLH-9KJPHF,De Dutch #10,2433 161A St,Surrey,Restaurant,49.04668069,-122.7753016
MARO-B23LQB,De Dutch #22 (Cloverdale),5630 176 St,Surrey,Restaurant,49.10466194,-122.7347579
A019941    ,De Dutch Pannekoek House #25,7310 120 St,Surrey,Restaurant,49.1357896,-122.8900083
LCAL-7FFQXD,De Dutch Pannekoek House (Fraser Hwy),15235 Fraser Hwy,Surrey,Restaurant,49.16586259,-122.8002822
GEDS-7KMPWY,Delicious Korean Chicken,19475 Fraser Hwy,Surrey,Restaurant,49.11542665,-122.6827788
A019364    ,Delitalia Fine Foods,1629 128 St,Surrey,Restaurant,49.03178116,-122.8677382
A020396    ,Dell Lanes,10576 King George Blvd,Surrey,Restaurant,49.1952329,-122.8449254
A019000    ,Delrios,1669 128 St,Surrey,Restaurant,49.03263244,-122.867801
A019749    ,Delta Pizza,12921 84 Ave,Surrey,Restaurant,49.15557656,-122.8645216
SHEN-AP5QBH,Denji Japanese Restaurant,6820 188 St,Surrey,Restaurant,49.1266045,-122.701433
NDAA-A9ZQH8,Denny's Restaurant #9300,6850 King George Blvd,Surrey,Restaurant,49.12727733,-122.8451699
MARO-B39UC5,Desh Punjab Sweets & Restaurant,12047 80 Ave,Surrey,Restaurant,49.14874447,-122.8887306
HCAR-ASQMHF,Desi Bites Restaurants,12877 80 Ave,Surrey,Restaurant,49.14842952,-122.8651435
DMIL-92PTGQ,Dhaliwal Bakery,12824 Anvil Way,Surrey,Restaurant,49.14451548,-122.8672605
GEDS-68RU3A,Dhaliwal Banquet Hall,8166 128 St,Surrey,Restaurant,49.15130553,-122.8673937
A019805    ,Dhaliwal Sweets Ltd,8430 128 St,Surrey,Restaurant,49.15584278,-122.8676984
A018261    ,Dhoom Restaurant & Bar,7938 128 St,Surrey,Restaurant,49.14687516,-122.8657707
SDFO-8MXQXX,Di Reggae Cafe,13593 King George Blvd,Surrey,Restaurant,49.19931401,-122.8455647
NDAA-9DNQLJ,Diamond Sweets & Restaurant,7228 192 St,Surrey,Restaurant,49.13415694,-122.6904718
SDFO-8G4L6D,Diamond Sweets and Restaurant,15933 Fraser Hwy,Surrey,Restaurant,49.15909621,-122.78079
SHEN-AZETAN,Ding Sushi,6351 152 St,Surrey,Restaurant,49.11798242,-122.8012761
SNOE-AE2SZG,Divine Delicacies,13483 78 Ave,Surrey,Restaurant,49.14465398,-122.8485004
HCAR-AW6UVW,Doma Sushi Restaurant,16033 108 Ave,Surrey,Restaurant,49.1989669,-122.7777544
NDAA-92MTDP,Domino's Pizza #10024,19475 Fraser Hwy,Surrey,Restaurant,49.11542665,-122.6827788
GEDS-6TSPYU,Domino's Pizza #10027,10346 Whalley Blvd,Surrey,Restaurant,49.19068709,-122.8417066
HCAR-ATHRE5,Domino's Pizza #10063,9450 120 St,Surrey,Restaurant,49.17459759,-122.8890045
GEDS-6E3SXC,Tobiko Sushi,15951 Fraser Hwy,Surrey,Restaurant,49.15815596,-122.7802487
SHEN-9YTQ9N,Tobiko Sushi,2711 192 St,Surrey,Restaurant,49.05150946,-122.6918208
KSMH-AWKPSL,Tofun Fusion Hot Pot,3189 King George Blvd,Surrey,Restaurant,49.05963853,-122.8116169
SWOD-A3HQFP,Tomato Shack Pizza,10322 Whalley Blvd,Surrey,Restaurant,49.19020269,-122.8417068
SHEN-A7GQGT,Tomu Sushi,9613 192 St,Surrey,Restaurant,49.17736128,-122.690718
MARO-B36VDN,Toor Sweets Ltd,12736 80 Ave,Surrey,Restaurant,49.14802998,-122.8697216
SHEN-ANSLB4,Top In Town Pizza,14330 64 Ave,Surrey,Restaurant,49.11851305,-122.825215
SDFO-8GPUJX,Top in Town Pizza,12788 76A Ave,Surrey,Restaurant,49.14218908,-122.8685586
SPLH-AZWSP7,Top In Town Pizza (Fraser Hwy),16016 Fraser Hwy,Surrey,Restaurant,49.1569315,-122.778281
GEDS-75FV9W,Top King's Chinese Restaurant and Cafe,10294 City Pky,Surrey,Restaurant,49.18970667,-122.8473983
SHEN-B23LJL,Top Quality Pizza,9540 120 St,Surrey,Restaurant,49.17633624,-122.889169
NDAA-93ES27,Townhall Public House South Surrey,3140 King George Blvd,Surrey,Restaurant,49.05918452,-122.8098986
SHEN-B23V6E,Townline Pizza,17767 64 Ave,Surrey,Restaurant,49.11898358,-122.7302435
GEDS-78Z28W,Toyota Cafe,15389 Guildford Dr,Surrey,Restaurant,49.19677339,-122.7950706
NDAA-9GYQWB,Training Day Cafe,8077 King George Blvd,Surrey,Restaurant,49.1494583,-122.8460133
GEDS-6E8STL,TREES,13479 76 Ave,Surrey,Restaurant,49.141013,-122.849007
HCAR-BCGTSR,Triple O's Burger Restaurant (Scott Rd),10388 Scott Rd,Surrey,Restaurant,49.19232357,-122.889553
NDAA-A7TQMD,Triple O's Burgers,14350 64 Ave,Surrey,Restaurant,49.11891915,-122.8246297
SWOD-A3YVCN,Turf Hotel 1967 Ltd.,12411 King George Blvd,Surrey,Restaurant,49.20660045,-122.8779839
ACAK-8VQTQF,Turf Hotel Lounge,12411 King George Blvd,Surrey,Restaurant,49.20660045,-122.8779839
A016687    ,Turkey House & Deli,1433 King George Blvd,Surrey,Restaurant,49.02808652,-122.7724311
HCAR-B5GN88,Tutti Frutti Frozen Yogurt,10231 King George Blvd,Surrey,Restaurant,49.18864766,-122.8456949
SHEN-AZMPT4,Tynehead Esso - Tim Hortons #6352,16815 96 Ave,Surrey,Restaurant,49.17726386,-122.7558604
HCAR-B7224Z,Udupi Palace Restaurant,13767 72 Ave,Surrey,Restaurant,49.13376303,-122.8398677
A018872    ,Ukrainian Orthodox Centre,13512 108 Ave,Surrey,Restaurant,49.19869626,-122.8475563
SHEN-ABJT3T,Ultimate Banquet Hall Ltd.,8072 120 St,Surrey,Restaurant,49.14988027,-122.8900491
SHEN-B5KSUZ,Umami Ramen,10302 City Pky,Surrey,Restaurant,49.18995809,-122.8473921
GEDS-7NJ23W,Umami Sushi,17725 64 Ave,Surrey,Restaurant,49.11896193,-122.7321395
SPLH-ASQPDH,Uncle Fatih's Pizza (City Parkway),10277 City Pky,Surrey,Restaurant,49.18955259,-122.8478886
HCAR-BANUBQ,UR Restaurant,14752 108A Ave,Surrey,Restaurant,49.19953305,-122.8137167
GEDS-69GNPL,Valley View Funeral Home,14660 72 Ave,Surrey,Restaurant,49.13357059,-122.8169317
SHEN-BCKQJK,Vancouver Veggi Pizza Ltd 2,8140 128 St,Surrey,Restaurant,49.15063342,-122.8673223
GEDS-6UMNVV,Vault Restaurant,5764 176 St,Surrey,Restaurant,49.10710947,-122.7347772
GEDS-68DU3X,Vedic Hindu Cultural Society,8321 140 St,Surrey,Restaurant,49.152945,-122.8349503
SHEN-B5KRFP,Vegan Pizza House,11267 125A St,Surrey,Restaurant,49.2073838,-122.8746878
GEDS-69MQ7C,Vege Garden Pizza & Coffee Shop,8383 128 St,Surrey,Restaurant,49.15512572,-122.8683298
SHEN-AP5SUE,Vegetarian Delite Bakery (Surrey),8078 128 St,Surrey,Restaurant,49.14934588,-122.8676637
NDAA-94NTVX,Veggie Hut Pizza & Pasta,7025 128 St,Surrey,Restaurant,49.13016942,-122.8681543
NDAA-8WPTK6,Venetis Pizza,9591 128 St,Surrey,Restaurant,49.17662407,-122.8682491
HCAR-AW722C,Veneto's Cakes & Pastries,7380 King George Blvd,Surrey,Restaurant,49.13673593,-122.8452107
ACAK-8XLNGA,Vera's Burger Shack (Brickyard),17449 56 Ave,Surrey,Restaurant,49.10436925,-122.7398766
HCAR-BCKQX9,Vera's Burger Shack (Fraser Hwy),18660 Fraser Hwy,Surrey,Restaurant,49.12517282,-122.7055044
SHEN-ABMTMD,Viet City Restaurant,14779 108 Ave,Surrey,Restaurant,49.19888905,-122.8132608
NDAA-99YMF5,Village Sushi,18690 Fraser Hwy,Surrey,Restaurant,49.12447159,-122.7040178
NDAA-9EFTEB,Vina,10355 152 St,Surrey,Restaurant,49.19192585,-122.8042654
SDFO-8BWQEE,Vlassis Souvlaki & Greek Taverna,10028 King George Blvd,Surrey,Restaurant,49.18496531,-122.8449733
GEDS-7HQP4F,Wal-Mart #5853 - Deli/Bakery,2355 160 St,Surrey,Restaurant,49.04439297,-122.781432
SHEN-A7TNAC,Wal-mart Supercentre #1205 - Deli,10153 King George Blvd,Surrey,Restaurant,49.18592247,-122.8458478
SWOD-AQFTDZ,Wally Lucie and Sons,12171 Sullivan St,Surrey,Restaurant,49.05577435,-122.8847491
SPLH-AUXN5M,Warehouse Lunch and Catering,8625 130 St,Surrey,Restaurant,49.15988079,-122.8627483
JDSO-ACFM44,Waves Coffee House,10777 University Dr,Surrey,Restaurant,49.19836169,-122.8510966
NDAA-AN9QFX,Wendy's #12,15959 Fraser Hwy,Surrey,Restaurant,49.15824302,-122.7793008
NDAA-ANGQWK,Wendy's #19,3077 152 St,Surrey,Restaurant,49.05767913,-122.8021125
NDAA-AN9QXE,Wendy's #25,17911 56 Ave,Surrey,Restaurant,49.10441232,-122.7266979
NDAA-AN9NET,Wendy's #4,9412 120 St,Surrey,Restaurant,49.1740025,-122.8899128
NDAA-AN9PBZ,Wendy's #9,10125 152 St,Surrey,Restaurant,49.18646016,-122.8011709
SHEN-AJUUR2,West Village Cafe,5620 152 St,Surrey,Restaurant,49.10489636,-122.8006262
NDAA-9MCQ88,Westin Pizza,7182 120 St,Surrey,Restaurant,49.13365221,-122.8901193
A014563    ,Westminster House Food Service,1653 140 St,Surrey,Restaurant,49.03243638,-122.8363843
A019219    ,Whalley Ball Park Green Concession,13350 105A Ave,Surrey,Restaurant,49.19308605,-122.8526902
S003239    ,Whalley Little League Concession - Major Diamond,13350 105A Ave,Surrey,Restaurant,49.19308605,-122.8526902
A018869    ,Whalley Round-up Cafe,10449 King George Blvd,Surrey,Restaurant,49.19258975,-122.8456448
SPLH-ASQPK5,What The Pho,13655 72 Ave,Surrey,Restaurant,49.13373951,-122.8439165
NDAA-9PPT45,Domino's Pizza #10085,13391 72 Ave,Surrey,Restaurant,49.13381399,-122.8519117
NDAA-94NRF7,Domino's Pizza #10088,2389 King George Blvd,Surrey,Restaurant,49.04498218,-122.7943705
HCAR-AWLS36,Don Asian Kitchen,2181 160 St,Surrey,Restaurant,49.04158125,-122.7795636
SHEN-9YPQN6,Don Chepe's Restaurant,13780 104 Ave,Surrey,Restaurant,49.19140671,-122.8405099
SHEN-9SSP8G,Donair Affair,12080 Nordel Way,Surrey,Restaurant,49.16109806,-122.8886041
JDSO-AD4M9J,Donair Affair,14350 64 Ave,Surrey,Restaurant,49.11891915,-122.8246297
RORS-63QTKM,Donair Affair (Surrey),10786 148 St,Surrey,Restaurant,49.19809906,-122.8122565
NDAA-BC2QPR,Donair Hub,10277 City Parkway,Surrey,Restaurant,49.18955259,-122.8478886
SWOD-9XJUAY,Donegal's Pub,12054 96 Ave,Surrey,Restaurant,49.17699459,-122.8875909
GLAE-9WERHV,Doni Korean Restaurant,10592 King George Blvd,Surrey,Restaurant,49.19548888,-122.8441913
ACAK-96MQ4H,Dragon Lounge,17755 60 Ave,Surrey,Restaurant,49.11171557,-122.7296331
GEDS-69UQZB,Dragon Village Restaurant,5678 176 St,Surrey,Restaurant,49.10561084,-122.7347669
HCAR-BA6LWN,Dragon Wok,8140 128 St,Surrey,Restaurant,49.15063342,-122.8673223
NDAA-8WZLHY,Dragon's Chop Suey House,16055 Fraser Hwy,Surrey,Restaurant,49.1569391,-122.7771027
GEDS-6XLQY8,Dublin Crossing Irish Pub,18789 Fraser Hwy,Surrey,Restaurant,49.12428644,-122.7022581
A020308    ,Eagle Quest Golf Centers Creekside Grill,7778 152 St,Surrey,Restaurant,49.14390528,-122.8007223
A019772    ,Eagle Quest Golf Centers Main Banquet Kitchen,7778 152 St,Surrey,Restaurant,49.14390528,-122.8007223
A020375    ,Earl Marriott Secondary School Food Service,15751 16 Ave,Surrey,Restaurant,49.03126025,-122.785441
GEDS-6ACQMD,Earl's Guildford,10160 152 St,Surrey,Restaurant,49.18699498,-122.8005135
NDAA-9RPTJE,East West Fusion Kitchen,12043 88 Ave,Surrey,Restaurant,49.16338853,-122.8890859
NDAA-A9KPX4,Easy Grill,10355 152 St,Surrey,Restaurant,49.19192585,-122.8042654
NDAA-95LSNV,Edith and Arthur Public House,8410 160 St,Surrey,Restaurant,49.1556693,-122.778587
NDAA-9QTQG2,Edo Japan,10355 152 St,Surrey,Restaurant,49.19192585,-122.8042654
MARO-B3GPES,Ekam's Sundae Delight,7750 128 St,Surrey,Restaurant,49.14358109,-122.8676534
ACAK-96MPZY,Elements Casino - Diamond Buffet,17755 60 Ave,Surrey,Restaurant,49.11171557,-122.7296331
ACAK-96MPND,Elements Casino - Foodies,17755 60 Ave,Surrey,Restaurant,49.11171557,-122.7296331
A017781    ,Elements Casino - Homestretch,17755 60 Ave,Surrey,Restaurant,49.11171557,-122.7296331
ACAK-96MQ7L,Elements Casino - Main Kitchen,17755 60 Ave,Surrey,Restaurant,49.11171557,-122.7296331
NDAA-A6USGM,Elements Casino - Molson Canadian Lounge,17755 60 Ave,Surrey,Restaurant,49.11171557,-122.7296331
ACAK-96MPWQ,Elements Casino - Poker Room,17755 60 Ave,Surrey,Restaurant,49.11171557,-122.7296331
A018637    ,Elena's Country Kitchen,5630 176 St,Surrey,Restaurant,49.10466194,-122.7347579
PNEL-8QKM26,Elevation Fitness,15110 54A Ave,Surrey,Restaurant,49.10151119,-122.8027089
RORS-5UYPM9,Elgin Park Secondary School Cafeteria,13484 24 Ave,Surrey,Restaurant,49.04555246,-122.8485887
GEDS-6G2STZ,Elim Village - The Emerald Food Service,9080 158 St,Surrey,Restaurant,49.16792415,-122.7843443
SDFO-88VT2K,Elisabeth's Chalet Restaurant,17785 56 Ave,Surrey,Restaurant,49.1042963,-122.7298667
SHEN-AASVAD,Elvis Pizza,14916 104 Ave,Surrey,Restaurant,49.19133805,-122.8082472
A013790    ,Enver Creek Secondary School Cafeteria,14505 84 Ave,Surrey,Restaurant,49.15582818,-122.8202501
GEDS-6N4RWE,Espresso Cafe,7330 137 St,Surrey,Restaurant,49.13602606,-122.8425791
GEDS-7HXQ8S,Esquires Coffee House (Crescent Rd),12823 Crescent Rd,Surrey,Restaurant,49.05320652,-122.8669833
A020410    ,Esso Whalley - Tim Hortons,10416 King George Blvd,Surrey,Restaurant,49.19204825,-122.8450674
KSMH-AK2REG,Ethical Addiction,1558 128 St,Surrey,Restaurant,49.03060606,-122.8673623
A019867    ,Eurest Dining Services #63384,16705 Fraser Hwy,Surrey,Restaurant,49.14956759,-122.7580097
SHEN-APFPTJ,Everbean,15331 16 Ave,Surrey,Restaurant,49.03132543,-122.7986252
A018173    ,Evergreen Hamlets - Main Kitchen,8382 156 St,Surrey,Restaurant,49.15520885,-122.7898491
SHEN-AU9QAR,Fab Burgers,7320 137 St,Surrey,Restaurant,49.13598565,-122.8426796
NDAA-9HDSBY,Famoso Neapolitan,15865 Croydon Dr,Surrey,Restaurant,49.04587135,-122.7824594
SHEN-B5KUMV,Famoso Neapolitan Pizzeria,10355 152 St,Surrey,Restaurant,49.19192585,-122.8042654
SHEN-A34Q6W,Fast Donair & Falafel,6820 188 St,Surrey,Restaurant,49.1266045,-122.701433
NDAA-9GA28R,Fatburger (Surrey),1750 152 St,Surrey,Restaurant,49.03414465,-122.8009727
HCAR-AUQP2U,Fatburger at Grandview Corner,16070 24 Ave,Surrey,Restaurant,49.04520078,-122.7773528
GEDS-6YDQLJ,Fieldstone Artisan Breads,12823 Crescent Rd,Surrey,Restaurant,49.05320652,-122.8669833
NDAA-8R8UMV,Fiji Canada Association,13629 108 Ave,Surrey,Restaurant,49.19896859,-122.8443615
HCAR-ASRQ6K,Fiona's Playdate Cafe,6820 188 St,Surrey,Restaurant,49.1266045,-122.701433
GEDS-7E5PJ5,Fish Net #1,12211 Beecher St,Surrey,Restaurant,49.0525937,-122.8836791
PLAE-7SQTAA,Five Corner Convenience,5989 168 St,Surrey,Restaurant,49.11117004,-122.7568384
SDFO-87TMCK,Five Guys Burgers & Fries,2245 160 St,Surrey,Restaurant,49.04289123,-122.7795525
A018410    ,Fleetwood Park Fastpitch Concession,15802 80 Ave,Surrey,Restaurant,49.14807967,-122.7831528
A016980    ,Fleetwood Park Secondary School,7940 156 St,Surrey,Restaurant,49.14718681,-122.789839
LCAL-64WQUJ,Fleetwood Place Food Service,16011 83rd Ave,Surrey,Restaurant,49.15378461,-122.7779885
SHEN-9SGNXL,Fleetwood Sushi Restaurant,15930 Fraser Hwy,Surrey,Restaurant,49.15706506,-122.7818799
GEDS-69UQBR,Fleetwood Triple O,15588 Fraser Hwy,Surrey,Restaurant,49.1617117,-122.7906313
GEDS-6DLT74,Fleetwood Villa Food Service,16028 83rd Ave,Surrey,Restaurant,49.15344194,-122.7780281
NDAA-9QCMD8,Flex Fitness Club,7130 120 St,Surrey,Restaurant,49.13256483,-122.8894631
MARO-B3GMTX,White Hart Pub & Grill,13588 88 Ave,Surrey,Restaurant,49.16252802,-122.8468646
GEDS-6Q4UFR,White Spot #629,10181 152 St,Surrey,Restaurant,49.18706468,-122.8013123
A019600    ,White Spot #633,1681 152 St,Surrey,Restaurant,49.03298204,-122.8016721
GEDS-6FYVJP,White Spot #658,13580 102 Ave,Surrey,Restaurant,49.18766811,-122.8459799
SDFO-8HCV64,White Spot (Morgan Crossing),15877 Croydon Dr,Surrey,Restaurant,49.04615548,-122.7824574
NDAA-9DGPS6,Whitecliff Residence Foods Services,15501 16 Ave,Surrey,Restaurant,49.03127682,-122.7930744
ACAK-97GPH7,Wild Wing,7322 King George Blvd,Surrey,Restaurant,49.1353508,-122.8451582
A020459    ,Wings Tap And Grill,7124 King George Blvd,Surrey,Restaurant,49.13216781,-122.8450365
SDFO-8G3PVK,Wired Monk Coffee Bistro (60th Ave),16811 60 Ave,Surrey,Restaurant,49.1116968,-122.7563213
GEDS-7SDM3H,Wok Box (Grandview Corners),2285 160 St,Surrey,Restaurant,49.04321227,-122.780068
HCAR-AVPVC2,Woo Korean BBQ,16070 24 Ave,Surrey,Restaurant,49.04520078,-122.7773528
SHEN-AP5Q5S,World Famous Chicken World,12842 96 Ave,Surrey,Restaurant,49.17696476,-122.8665504
SHEN-AZ7NZN,World Famous Chicken World (72nd Ave),13775 72 Ave,Surrey,Restaurant,49.13379072,-122.839071
SHEN-9X3LYQ,WRSSBA (White Rock South Surrey Baseball Association) Concessio,14600 20 Ave,Surrey,Restaurant,49.03803115,-122.8159228
HCAR-B3ARDF,Wuyang Kitchen,18640 Fraser Hwy,Surrey,Restaurant,49.12546293,-122.7060946
GEDS-78BTNS,X-Fuel Nutrition Inc,7635 King George Blvd,Surrey,Restaurant,49.14164135,-122.8459608
SWOD-AG7UK4,Yakko Sushi,19537 Fraser Hwy,Surrey,Restaurant,49.11499575,-122.6816778
SPLH-ASUT3X,Yamako Japanese Restaurant,15355 24 Ave,Surrey,Restaurant,49.04583671,-122.7975044
GEDS-7GZU35,YL's Curry Bowl,15277 100 Ave,Surrey,Restaurant,49.1844401,-122.7987902
SHEN-AKQP9B,Yogen Fruz (Guildford),10355 152 St,Surrey,Restaurant,49.19192585,-122.8042654
SPLH-9P8Q6K,Yoko Sushi & Noodle House,16013 Fraser Hwy,Surrey,Restaurant,49.15736772,-122.7783142
MARO-B3LULE,Zaiqa Halal BBQ Restaurant,9450 120 St,Surrey,Restaurant,49.17459759,-122.8890045
SYOG-5M55QU,Zion Park Manor Food Service,5939 180 St,Surrey,Restaurant,49.11004416,-122.7240003
SPLH-9NEUHG,Zugba Flame Grilled Chicken,14351 104 Ave,Surrey,Restaurant,49.19172759,-122.8241835
HCAR-B8RUZG,Flying Cup Coffee & Dessert,10422 168 St,Surrey,Restaurant,49.19205936,-122.7562559
A018553    ,Fong's Eatery,12308 Beecher St,Surrey,Restaurant,49.05281221,-122.8808414
GEDS-65SNSU,Fortune Wok (Surrey),1711 152 St,Surrey,Restaurant,49.0331143,-122.801669
NDAA-948T7W,Four Seasons,14351 104 Ave,Surrey,Restaurant,49.19172759,-122.8241835
SYOG-5M553H,Frank Hurt Secondary School Cafeteria,13940 77 Ave,Surrey,Restaurant,49.14255953,-122.8359111
GEDS-6R5QMX,Fraser Glen Pizza,16814 104 Ave,Surrey,Restaurant,49.19147317,-122.7560494
A019745    ,Fraser Heights Secondary School Cafeteria,16060 108 Ave,Surrey,Restaurant,49.19859857,-122.7769301
HCAR-ASGSZD,Fraser Region Aboriginal Friendship Centre,10095 Whalley Blvd,Surrey,Restaurant,49.18594714,-122.8434812
HCAR-ATYPHV,Fraserview Meats,7218 King George Blvd,Surrey,Restaurant,49.1343323,-122.8452132
NDAA-A9KQFU,Fraserview Meats,12837 88 Ave,Surrey,Restaurant,49.16276072,-122.8671874
SHEN-A76R64,Fraserview Meats,6377 168 St,Surrey,Restaurant,49.11810961,-122.756897
JRON-6M3P9A,Fraserway Meat,12047 80 Ave,Surrey,Restaurant,49.14874447,-122.8887306
GEDS-7J4MNB,Freedom Place,10342 148 St,Surrey,Restaurant,49.19019935,-122.8116967
A016716    ,Fresgo Inn,10102 King George Blvd,Surrey,Restaurant,49.18621766,-122.8450997
GEDS-6UPMUE,Fresh Hair Concepts,15252 32 Ave,Surrey,Restaurant,49.06101028,-122.7984696
HCAR-AW72DJ,Fresh Street Market - Deli,15930 Fraser Hwy,Surrey,Restaurant,49.15706506,-122.7818799
NDAA-9BNNTT,Freshii,10355 152 St,Surrey,Restaurant,49.19192585,-122.8042654
HCAR-ATMPPQ,Freshii (24th Ave),16030 24 Ave,Surrey,Restaurant,49.04521951,-122.7779787
HCAR-BD8TDN,Freshii (Cloverdale Mall Surrey),6476 176 St,Surrey,Restaurant,49.12001039,-122.7345758
HCAR-AZXTPE,Freshii (Fleetwood),15940 Fraser Hwy,Surrey,Restaurant,49.15704507,-122.7809649
HCAR-B8Y2BQ,Freshii - Panorama,5717 152 St,Surrey,Restaurant,49.10654594,-122.8014385
SHEN-BDJU3G,Freshii CC2,9639 137A St,Surrey,Restaurant,49.17801645,-122.8423177
HCAR-B7MP49,Freshlo Pizza,3268 King George Blvd,Surrey,Restaurant,49.06108806,-122.8120565
NDAA-8Z8PDS,Freshslice,10153 King George Blvd,Surrey,Restaurant,49.18592247,-122.8458478
JDSO-AC4SZY,Freshslice Pizza,10777 University Dr,Surrey,Restaurant,49.19836169,-122.8510966
SPLH-AS8TEH,Freshslice Pizza (104th Ave),14357 104 Ave,Surrey,Restaurant,49.19172924,-122.8237719
SPLH-9CWVB6,Freshslice Pizza (152nd St Surrey),10355 152 St,Surrey,Restaurant,49.19192585,-122.8042654
MARO-AZFTJ5,Freshslice Pizza (152nd St),1711 152 St,Surrey,Restaurant,49.0331143,-122.801669
GEDS-7RLVLS,Freshslice Pizza (Surrey),10252 City Pky,Surrey,Restaurant,49.18909542,-122.8473918
SWOD-AHGU84,Freshslice Pizza - Park Place,9908 King George Hwy,Surrey,Restaurant,49.18334718,-122.8449947
SDFO-8MYUSB,FUEL Catering,2570 King George Blvd,Surrey,Restaurant,49.04892267,-122.7971082
NDAA-9EBQJ6,Full Ramen Japanese Cuisine,15925 Fraser Hwy,Surrey,Restaurant,49.15861277,-122.7813143
JDSO-ADJN3Q,Funplex,12070 88 Ave,Surrey,Restaurant,49.16306615,-122.8882978
NDAA-9NYPDW,Gabrielle Roy School Kitchen,6887 132 St,Surrey,Restaurant,49.1283888,-122.8569091
GEDS-7VCPN5,Galina's Cafe,13531 102 Ave,Surrey,Restaurant,49.18801137,-122.8470738
SHEN-AP5QTE,Galini Greek Kouzina & Grill,19475 Fraser Hwy,Surrey,Restaurant,49.11542665,-122.6827788
GEDS-6PNPVF,Garcha Bros Meat Shop,8166 128 St,Surrey,Restaurant,49.15130553,-122.8673937
DMIL-9PBSFT,Garcha Bros Meat Shop,13767 72 Ave,Surrey,Restaurant,49.13376303,-122.8398677
GEDS-7RSNY3,Garcha Bros Meat Shop (68th Ave),15299 68 Ave,Surrey,Restaurant,49.12656472,-122.7992341
JDSO-AD4RB8,Garcha Bros Meat Store,15299 68 Ave,Surrey,Restaurant,49.12656472,-122.7992341
PNEL-8PJRAV,Garry's Rasoi,12788 76A Ave,Surrey,Restaurant,49.14218908,-122.8685586
SDFO-8LBUNQ,Gateway Java,13401 108 Ave,Surrey,Restaurant,49.1990937,-122.8502549
SHEN-AZ7P7E,Gateway Pizza & Curry House,9183 148 St,Surrey,Restaurant,49.16994156,-122.8124996
GEDS-6NKUWV,Gateway Pizza (Newton),12877 76 Ave,Surrey,Restaurant,49.1411849,-122.8659412
SPLH-9P8V42,GB Foods & Sherlocks Imports,13369 72 Ave,Surrey,Restaurant,49.1338361,-122.8530991
HCAR-AU2VFF,Glenwood Pizza & Curry House,16793 60 Ave,Surrey,Restaurant,49.11167704,-122.757482
SPLH-9KKRYF,GNJ Vegetarian Bistro,7310 120 St,Surrey,Restaurant,49.1357896,-122.8900083
ACAK-9BEQ5F,Go Bananas/Funky Monkey Playcenter (Surrey),13853 104 Ave,Surrey,Restaurant,49.1917049,-122.8380632
SWOD-9YXM77,Go Grill,10153 King George Blvd,Surrey,Restaurant,49.18592247,-122.8458478
HCAR-AWER52,Golden Chongqing House,10537 King George Blvd,Surrey,Restaurant,49.19396554,-122.8456027
GEDS-7D3TRN,Golden Lion Restaurant,2377 King George Blvd,Surrey,Restaurant,49.04495018,-122.7933296
JDSO-AE2MNU,Golden Medal Restaurant,5619 176A St,Surrey,Restaurant,49.10463552,-122.7338308
PNEL-8R4MZJ,Golden Panda Restaurant,6355 152 St,Surrey,Restaurant,49.11819888,-122.8013965
SHEN-9PATK5,Golden Samosa Bakery,12025 Nordel Way,Surrey,Restaurant,49.16237241,-122.8888952
SPLH-9P2SK9,Golden Sweets & Restaurant,6377 168 St,Surrey,Restaurant,49.11810961,-122.756897
SHEN-B55PW9,Goru Goru,15930 Fraser Hwy,Surrey,Restaurant,49.15706506,-122.7818799
HCAR-BD2UPV,Goto Moto & Huong Que Restaurant,10673 King George Blvd,Surrey,Restaurant,49.19673595,-122.8457093
A014243    ,Gracepoint Community Church,3487 King George Blvd,Surrey,Restaurant,49.06520259,-122.8184368
A019423    ,Grand Taj Banquet Centre,8388 128 St,Surrey,Restaurant,49.15488649,-122.8677007
MARO-B3LPN4,Grandt Kitchen,10257 King George Blvd,Surrey,Restaurant,49.18923985,-122.845753
A020392    ,Grassroots Cafe,12666 72 Ave,Surrey,Restaurant,49.13362169,-122.8713254
SHEN-9ZKSGP,Great Pizza,15988 Fraser Hwy,Surrey,Restaurant,49.15724844,-122.7795386
GEDS-5ZZQLL,Great Pizza 2 For 1,12578 72 Ave,Surrey,Restaurant,49.13327245,-122.8741596
SYOG-5M57T4,Greco's Specialty Foods Ltd,6886 King George Blvd,Surrey,Restaurant,49.1277599,-122.8451596
MARO-AZETTW,Greek Island Pizza,14657 108 Ave,Surrey,Restaurant,49.1989141,-122.8160859
HCAR-BD5TQ5,Greek Islands Restaurant,9547 152 St,Surrey,Restaurant,49.17590414,-122.8012833
SWOD-AG5UGV,"Green Indian Cuisine, Pizza & Sweets",12565 88 Ave,Surrey,Restaurant,49.16401631,-122.8747815
GEDS-65VQV3,Green Lettuce Restaurant,6350 120 St,Surrey,Restaurant,49.11815677,-122.8900634
NDAA-92XPX8,Green Timbers Market (RCMP),14200 Green Timbers Way,Surrey,Restaurant,49.17966902,-122.8299145
A018895    ,Green Timbers Pub,9167 148 St,Surrey,Restaurant,49.16961161,-122.8124958
A013869    ,Growing Together Day Care - Food Service,10707 146 St,Surrey,Restaurant,49.19694731,-122.8178245
GEDS-65VSG5,Guildford Family Place,10310 154 St,Surrey,Restaurant,49.18936699,-122.7950441
SYOG-5M59T6,Guildford Gardens Daycare,14921 107A Ave,Surrey,Restaurant,49.19832797,-122.8086813
A018362    ,Guildford Golf & Country Club Concession,7929 152 St,Surrey,Restaurant,49.14458309,-122.801385
A018363    ,Guildford Golf & Country Club Lounge,7929 152 St,Surrey,Restaurant,49.14458309,-122.801385
A018364    ,Guildford Golf & Country Club Restaurant,7929 152 St,Surrey,Restaurant,49.14458309,-122.801385
A016534    ,Guildford Park Secondary School Cafeteria,10707 146 St,Surrey,Restaurant,49.19694731,-122.8178245
ACAK-8XGSTR,Guildford Pizza & Pasta,10790 148 St,Surrey,Restaurant,49.1981435,-122.8122561
SYOG-5M563K,Guildford Pizza & Restaurant,10727 135A St,Surrey,Restaurant,49.19753024,-122.8472596
SWOD-AKBUJF,Guildford Seniors Village Food Service,14568 104A Ave,Surrey,Restaurant,49.19257834,-122.8183454
A016834    ,Guildford Station Pub,10176 154 St,Surrey,Restaurant,49.18758872,-122.7950644
GEDS-6J6MB7,Guildford Sushi House,10330 152 St,Surrey,Restaurant,49.19027016,-122.8000928
SHEN-AJDP5A,Gulberg Catering & Production Centre,8322 130 St,Surrey,Restaurant,49.15374911,-122.8620364
SHEN-9TNMS5,Gulberg Mediterranean & Persian Grill,12578 72 Ave,Surrey,Restaurant,49.13327245,-122.8741596
GEDS-6D8TJW,Gulberg Tandoor & Donair,12578 72 Ave,Surrey,Restaurant,49.13327245,-122.8741596
GEDS-6AAPTZ,Gurdwara Amrit Prakash Sikh Temple,7990 123A St,Surrey,Restaurant,49.14785795,-122.8802975
GEDS-76HV2F,Gurdwara Dukh Nivaran Sahib Society,15255 68 Ave,Surrey,Restaurant,49.12656348,-122.7998996
GEDS-85ZT62,Gurdwara Sahib Brookside Temple,8365 140 St,Surrey,Restaurant,49.15472947,-122.8349706
A013876    ,Gurdwara Sahib Dasmesh Darbar,12885 85 Ave,Surrey,Restaurant,49.15780659,-122.8652831
PGOO-63CUDS,Guru Lucky Snacks & Sweets,7660 134 St,Surrey,Restaurant,49.14197248,-122.8509582
GEDS-65VTRU,Guru Nanak Sikh Gurdwara Temple,7050 120 St,Surrey,Restaurant,49.13132323,-122.8899858
GEDS-73JSZZ,H Anmol Sweet & Restaurant,8363 128 St,Surrey,Restaurant,49.15466529,-122.86936
SHEN-AP8PBW,H-Mart Hot Food,19555 Fraser Hwy,Surrey,Restaurant,49.11473773,-122.6811169
HCAR-B6KMSN,Halifax Essentials Donair - Shannon Hall,6050A 176 St,Surrey,Restaurant,49.11225879,-122.7347282
GEDS-69F2AU,Hanako Japanese Restaurant,15135 101 Ave,Surrey,Restaurant,49.18630015,-122.8027022
NDAA-9S2VV2,Hanaya Japanese Restaurant,2828 152 St,Surrey,Restaurant,49.05326246,-122.8009054
HCAR-BCUPMH,Hangry Health Bar,15380 102A Ave,Surrey,Restaurant,49.18859323,-122.7962524
A020358    ,Hannam Supermarket (Deli),15357 104 Ave,Surrey,Restaurant,49.19170326,-122.7966521
MARO-B8MS4M,Hannam Supermarket Restaurant,15357 104 Ave,Surrey,Restaurant,49.19170326,-122.7966521
SWOD-AF3Q48,Hansel Deli,5804 176 St,Surrey,Restaurant,49.10792392,-122.7347726
A018866    ,Happy Farm Group Centre for Children Food Service,9458 134 St,Surrey,Restaurant,49.1745729,-122.8511954
GEDS-797Q8J,Happy Jacks Cafe,10470 152 St,Surrey,Restaurant,49.19270855,-122.8005444
NDAA-ALUNEN,HappyCakes CupCakes & More,18640 Fraser Hwy,Surrey,Restaurant,49.12546293,-122.7060946
HCAR-B7YP88,Harbin Food,1647 140 St,Surrey,Restaurant,49.03210737,-122.834578
SHEN-BCSVDK,Haru Japanese Restaurant,19390 68 Ave,Surrey,Restaurant,49.12623835,-122.6858235
SPLH-ASHT5Z,Haryana Sweets & Catering Service,12448 82 Ave,Surrey,Restaurant,49.15185171,-122.8778071
NDAA-9H7NFY,Hawthorne Beer Market & Bistro,5633 176 St,Surrey,Restaurant,49.10484451,-122.7351986
A018954    ,Hazelmere Golf & Tennis Club Lounge/Kitchen,18150 8 Ave,Surrey,Restaurant,49.01621711,-122.7191482
A018910    ,Hazelmere Golf & Tennis Club Main Dining Room,18150 8 Ave,Surrey,Restaurant,49.01621711,-122.7191482
A018953    ,Hazelmere Golf & Tennis Club Snack Bar,18150 8 Ave,Surrey,Restaurant,49.01621711,-122.7191482
A018992    ,Hazelmere Lodge Food Service,19475 16 Ave,Surrey,Restaurant,49.0312795,-122.6834655
ACAK-8VHRZ5,Healthy Monkey Cafe,2970 King George Blvd,Surrey,Restaurant,49.05621632,-122.8058611
A018926    ,Helping Hands Children's Centre Food Service,9012 160 St,Surrey,Restaurant,49.16698471,-122.7785269
GEDS-7R4TU5,Hi Japanese Sushi,3388 Rosemary Heights Cres,Surrey,Restaurant,49.06333416,-122.7981734
A018906    ,Hillside Lodge Food Service,10592 125B St,Surrey,Restaurant,49.19553336,-122.8737093
GEDS-7ELT6P,Hilton Villa Care Centre Partnership,13525 Hilton Rd,Surrey,Restaurant,49.20227873,-122.8470483
GEDS-6SAQMH,Holiday Inn Express Surrey - Breakfast Area,15808 104 Ave,Surrey,Restaurant,49.19136246,-122.7833802
GEDS-775L8C,Holy Cross Regional Secondary School,16193 88 Ave,Surrey,Restaurant,49.16295131,-122.7738025
SHEN-AMWR8K,Holy Taco,15951 Fraser Hwy,Surrey,Restaurant,49.15815596,-122.7802487
HCAR-AZYNBW,Home Slice Pizza,7170 188 St,Surrey,Restaurant,49.1329244,-122.701348
GEDS-6LD2F9,Honeybee Centre - Kitchen,7480 176 St,Surrey,Restaurant,49.13885443,-122.7341535
HCAR-BCZURV,Hook and Ladder Bar & Grill,8593 132 St,Surrey,Restaurant,49.15844548,-122.8574375
SDFO-8FEUYM,Hooked Fish Bar,12157 Beecher St,Surrey,Restaurant,49.05231219,-122.8847752
HCAR-AU9V4X,Hot Millions Pizza & Cafe,9200 120 St,Surrey,Restaurant,49.17059222,-122.8900158
SHEN-AGKN4N,Hot Pan Pizza,13634 104 Ave,Surrey,Restaurant,49.19144332,-122.8442952
MARO-AZHTMX,Hugo's Mexican Kitchen,19181 Fraser Hwy,Surrey,Restaurant,49.11938014,-122.6912061
HCAR-ASV26J,Huyen Coffee Shop,13551 105A Ave,Surrey,Restaurant,49.194609,-122.8466597
GEDS-5SQS5N,Hyland House Food Service,6595 King George Blvd,Surrey,Restaurant,49.12268571,-122.8459244
ACAK-8XKTKS,IHOP #309,2429 152 St,Surrey,Restaurant,49.04616705,-122.8015081
A018356    ,IHOP #312,8170 120 St,Surrey,Restaurant,49.15202276,-122.8900736
HCAR-B7YVBD,Ike Sushi,19188 72 Ave,Surrey,Restaurant,49.13346587,-122.6915763
SHEN-ABJTGL,Il Uk Jo Restaurant Ltd.,15188 Fraser Hwy,Surrey,Restaurant,49.16616158,-122.8020339
PNEL-8R2TQT,Imitating Christ Training Centre,12969 Crescent Rd,Surrey,Restaurant,49.05502583,-122.8631422
HCAR-B2MR8U,Imperial Garden Chinese Cuisine,1625 152 St,Surrey,Restaurant,49.03240001,-122.8016914
GEDS-6SYPL6,Imperial Place Residences,13853 102 Ave,Surrey,Restaurant,49.18792654,-122.8383286
SHEN-B32QAM,Indian Haveli Restaurant Ltd,7488 King George Blvd,Surrey,Restaurant,49.13853724,-122.8452552
SYOG-5M598H,Irmandade Portuguesa Do Santo Cultural Society,12918 112 Ave,Surrey,Restaurant,49.20610809,-122.8643231
SHEN-AU2Q9Y,Islands Cafe,16041 24 Ave,Surrey,Restaurant,49.04630357,-122.7777057
GEDS-6TKTH5,Izumo Sushi Japanese Restaurant,13631 100 Ave,Surrey,Restaurant,49.18443697,-122.8442852
NDAA-9BXM68,Jack's Public House,9082 152 St,Surrey,Restaurant,49.16791232,-122.8009788
A018937    ,Jade Valley Restaurant,10090 152 St,Surrey,Restaurant,49.18575463,-122.8005815
SHEN-9YPTKH,Jaipur Indian Cuisine,8840 120 St,Surrey,Restaurant,49.16398489,-122.8900713
SHEN-9Z3L58,Java Hut Cafe,7728 128 St,Surrey,Restaurant,49.1427663,-122.8676693
SDFO-8GDM7A,Jerusalem Grill,15933 Fraser Hwy,Surrey,Restaurant,49.15909621,-122.78079
HCAR-B7MRKA,Jin Soo Sung Chan Korean Restaurant,10312 152A St,Surrey,Restaurant,49.18971779,-122.7992504
NDAA-BBLPD6,JJ Cafe,5737 176 St,Surrey,Restaurant,49.1066014,-122.73519
SYOG-5M58ZM,Johnston Heights Church,9612 152 St,Surrey,Restaurant,49.17741513,-122.8007418
SYOG-5M57NR,Johnston Heights Secondary School Cafeteria,15350 99 Ave,Surrey,Restaurant,49.18238896,-122.7967186
GEDS-6CFT6B,Jolly Mac's,14815 108 Ave,Surrey,Restaurant,49.19943838,-122.8121412
GEDS-7UULCR,Jon's Newtrition Kitchen,8145 130 St,Surrey,Restaurant,49.15057874,-122.8625344
SHEN-AZEVE8,Joyful Indulgence Cafe,15222 32 Ave,Surrey,Restaurant,49.06141561,-122.8001818
SWOD-9YMUZR,Jugo Juice (Grandview Corners),2443 161A St,Surrey,Restaurant,49.0469929,-122.7753001
HCAR-B6PRJZ,Jugo Juice (Guildford),10355 152 St,Surrey,Restaurant,49.19192585,-122.8042654
GEDS-84XT8W,Jumbo Pizza (Surrey),5780 176A St,Surrey,Restaurant,49.10748286,-122.7334884
SHEN-ACXME6,Junior Scholars Educational Childcare,5728 142 St,Surrey,Restaurant,49.1069376,-122.8285687
SWOD-APSPEM,Just Cakes Bakeshop,7548 120 St,Surrey,Restaurant,49.13980911,-122.8900035
SPLH-98MP89,K Pop Karaoke Restaurant,14914 104 Ave,Surrey,Restaurant,49.19133785,-122.8083471
SPLH-9P8T6J,Kababji Grill,15775 Croydon Dr,Surrey,Restaurant,49.04768716,-122.784927
SHEN-AP5PB8,Kaffina Coffee,2950 King George Blvd,Surrey,Restaurant,49.0556839,-122.8055577
SHEN-ABMQBQ,Kairali Village Restaurant,12414 82 Ave,Surrey,Restaurant,49.15186633,-122.8785309
NDAA-9GVU9Z,Kalamaki Greek Grill,2711 192 St,Surrey,Restaurant,49.05150946,-122.6918208
SWOD-APPNNE,Kalmar Restaurant,8076 King George Blvd,Surrey,Restaurant,49.14970607,-122.8453794
A019244    ,Kam Wah Restaurant,9340 120 St,Surrey,Restaurant,49.17281582,-122.8899212
GEDS-6MNMCW,Kamal Sweets & Tandoori Hut,6977 128 St,Surrey,Restaurant,49.12968509,-122.8680644
GEDS-7SDLR2,Kami Japanese Restaurant,2215 160 St,Surrey,Restaurant,49.0420561,-122.7797716
NDAA-95HQ6Q,Kami Strawberry Hill Japanese Restaurant,12101 72 Ave,Surrey,Restaurant,49.13501849,-122.8876389
GEDS-69PR95,Keg Steakhouse & Bar #131,15180 32 Ave,Surrey,Restaurant,49.06140173,-122.8021464
GEDS-6VJPCQ,Keg Steakhouse & Bar (Scott Rd),7948 120 St,Surrey,Restaurant,49.14744796,-122.8900687
SHEN-A7WQC8,Kelly's Pub,7218 King George Blvd,Surrey,Restaurant,49.1343323,-122.8452132
PGOO-69BTQX,Ken's Cafe,5695 176 St,Surrey,Restaurant,49.10577127,-122.7352032
SDFO-8MCPDC,Ken's Tea House,10692 135A St,Surrey,Restaurant,49.19701092,-122.8466936
SHEN-ATTV6D,Kerala Kitchen,9386 120 St,Surrey,Restaurant,49.17370646,-122.8899173
NDAA-9NKTFG,Kernels,10355 152 St,Surrey,Restaurant,49.19192585,-122.8042654
NDAA-9BGPR8,KFC #017-001,10355 152 St,Surrey,Restaurant,49.19192585,-122.8042654
GEDS-6HKV3L,KFC #018-004,10153 King George Blvd,Surrey,Restaurant,49.18592247,-122.8458478
ACAK-8T9PGA,KFC #1818/Taco Bell,9056 152 St,Surrey,Restaurant,49.16739931,-122.8009639
ACAK-8T9NSX,KFC #1820/Taco Bell,13577 73rd Ave,Surrey,Restaurant,49.13524174,-122.8460184
SDFO-8HEPAH,KFC #1838,12121 72 Ave,Surrey,Restaurant,49.13426465,-122.8875228
SHEN-APFQLS,Khalsa Rasoyee and Sweets,16055 Fraser Hwy,Surrey,Restaurant,49.1569391,-122.7771027
GEDS-66Z2DP,Khalsa School Cafeteria,6933 124 St,Surrey,Restaurant,49.12960441,-122.8792758
NDAA-9PPQAD,Khalsa Secondary School (High School),10677 124 St,Surrey,Restaurant,49.19613704,-122.8789124
A020053    ,Kid's Play Daycare Centre Food Service,12819 Old Yale Rd,Surrey,Restaurant,49.19765626,-122.866959
SWOD-AEVR4M,Kids & Company (King George),9900 King George Blvd,Surrey,Restaurant,49.18235922,-122.844907
SWOD-A83PU8,Kids & Company (Surrey Professional),13737 96 Ave,Surrey,Restaurant,49.17720977,-122.842751
NDAA-A9PNQA,Kids & Company Morgan Crossing South Surrey,15715 Croydon Dr,Surrey,Restaurant,49.04822684,-122.7871157
KSMH-AQNNLT,Kids Play Cafe & Cafe Artistico,14885 60 Ave,Surrey,Restaurant,49.11196946,-122.8099226
GEDS-7K9VBQ,Kiki's Kitchen,7392 138 St,Surrey,Restaurant,49.13707808,-122.8384055
PGOO-662TRV,Kiki's Restaurant,1959 152 St,Surrey,Restaurant,49.03727504,-122.8014669
GEDS-65FPRC,Kim Hoang Restaurant,10330 152 St,Surrey,Restaurant,49.19027016,-122.8000928
SHEN-AZMNFV,Kim's Deli,13740 104 Ave,Surrey,Restaurant,49.19140638,-122.8413808
GEDS-7A3RL8,Kimbelee Place,12935 96 Ave,Surrey,Restaurant,49.17733839,-122.8641024
A019679    ,Kimchi Palace Restaurant,6019 196 St,Surrey,Restaurant,49.11155799,-122.6802683
SPLH-AEPLC8,Kin Thai Kitchen & Bar,2443 161A St,Surrey,Restaurant,49.0469929,-122.7753001
HCAR-B9MQS9,King Do Restaurant,13922 104 Ave,Surrey,Restaurant,49.19134235,-122.8365118
SHEN-9PHPWJ,King George Pizza,7093 King George Blvd,Surrey,Restaurant,49.13100319,-122.8459898
SHEN-A2FL98,King Tut's Donair and Pizza,5691 177B St,Surrey,Restaurant,49.10579854,-122.7305337
PNEL-8RYR39,Kinsmen Lodge,9650 137A St,Surrey,Restaurant,49.17773169,-122.8417974
SHEN-9PXNWT,Knight & Day,9677 King George Blvd,Surrey,Restaurant,49.17836605,-122.8460597
SWOD-AHS22K,Koco Espresso,13585 16 Ave,Surrey,Restaurant,49.03142466,-122.8462418
HCAR-B6HRXN,Koh Noor Fast Catering,12889 84 Ave,Surrey,Restaurant,49.15556846,-122.8657296
NDAA-BCKQA9,Krishna's Dosa Palace,7500 120 St,Surrey,Restaurant,49.13913715,-122.8900684
GEDS-75NVFM,Krishnas Dosa Grill,8910 120 St,Surrey,Restaurant,49.16515223,-122.8900695
SPLH-9SZQG4,KSP Shahi Catering & Sweets,12815 85 Ave,Surrey,Restaurant,49.15759827,-122.8674407
JDSO-ACGNVG,Kubyertos Lechon House,8140 120 St,Surrey,Restaurant,49.15114002,-122.8900665
NDAA-9BHTGZ,Kung Pao Wok,10355 152 St,Surrey,Restaurant,49.19192585,-122.8042654
HCAR-BCSP3M,KW Gardens Chinese Restaurant,2338 King George Blvd,Surrey,Restaurant,49.04476621,-122.7921186
NDAA-9B3QS3,Kwan Kee Noodle House,15277 100 Ave,Surrey,Restaurant,49.1844401,-122.7987902
A020029    ,Kwantlen Park Secondary School Cafeteria,10441 132 St,Surrey,Restaurant,49.19222044,-122.8566797
SDFO-8KMTQB,Kwantlen Pizza Sweets & Snacks,15122 72 Ave,Surrey,Restaurant,49.13351251,-122.8026091
SHEN-9PHLGV,Kwantlen Pizza Sweets & Snacks,12578 72 Ave,Surrey,Restaurant,49.13327245,-122.8741596
MARO-B25NSM,Kyoto Sushi Japanese Restaurant,13651 72 Ave,Surrey,Restaurant,49.13373649,-122.8440102
MARO-B3ER9D,L'Aromas Coffee / Malone's,12901 16 Ave,Surrey,Restaurant,49.03150214,-122.8651009
A020119    ,La Charcuterie Deli,19080 96 Ave,Surrey,Restaurant,49.1768378,-122.6944152
SWOD-A58Q7W,La Conquistadora de Pablo,10511 King George Blvd,Surrey,Restaurant,49.19366523,-122.8456046
KSMH-ASUUGL,La D'Amico Pizza,13916 Grosvenor Rd,Surrey,Restaurant,49.20368515,-122.8363483
A016961    ,LA Matheson Secondary School,9484 122 St,Surrey,Restaurant,49.17529188,-122.8843971
PNEL-8RHMJZ,La Tandoori Pick & Go Restaurant,7743 128 St,Surrey,Restaurant,49.14346097,-122.8681748
JDSO-ACMMJJ,La Van Tea,1688 152 St,Surrey,Restaurant,49.03243524,-122.8008931
SWOD-9Y2MB7,Lahori Sweets & Restaurant,12877 80 Ave,Surrey,Restaurant,49.14842952,-122.8651435
PGOO-665TGZ,Lakwon Rice Bakery,12520 Old Yale Rd,Surrey,Restaurant,49.19705281,-122.8753878
SPLH-9KHPNC,Landmark Cinemas 12 Guildford Surrey - Concession,15051 101 Ave,Surrey,Restaurant,49.18627117,-122.8050192
SPLH-9KHS7E,Landmark Cinemas 12 Guildford Surrey - Pizza Pizza,15051 101 Ave,Surrey,Restaurant,49.18627117,-122.8050192
SHEN-A7LPGD,Lark Care (Laurel) Operations Ltd.,9688 137A St,Surrey,Restaurant,49.17842207,-122.8417803
SDFO-8DFUST,Launching Pad,984 160 St,Surrey,Restaurant,49.0199688,-122.7789908
SPLH-ARLUG4,Lazeez Pizza,9014 152 St,Surrey,Restaurant,49.16697429,-122.7992408
SHEN-BCSQS2,Le Jardin Restaurant,1677 128 St,Surrey,Restaurant,49.03285473,-122.8677942
JDSO-AD3QH2,Leaf Tea,1618 152 St,Surrey,Restaurant,49.03148525,-122.8008968
SPLH-9P2P7K,Lee Gar Nei K-Food,15280 101 Ave,Surrey,Restaurant,49.18597274,-122.7986031
MARO-B39VCZ,Lee Garden Seafood Restaurant,8080 120 St,Surrey,Restaurant,49.15013643,-122.8900135
SWOD-AHZUMF,Lee Yuen Seafood Restaurant,14755 104 Ave,Surrey,Restaurant,49.19166808,-122.8136896
SHEN-B7BNSR,Lee Yuen Seafood Restaurant,1812 152 St,Surrey,Restaurant,49.03508252,-122.8008684
NDAA-9YQU3K,Lee's Express Chinese Food,9181 148 St,Surrey,Restaurant,49.16969397,-122.8124313
HCAR-B8BV64,Lele Cafe,15300 105 Ave,Surrey,Restaurant,49.19317507,-122.7977179
HCAR-B6VVCN,Liberty Kitchen Grandview,16010 24 Ave,Surrey,Restaurant,49.04523092,-122.7785676
GEDS-65GNXR,Lighthouse Fish & Chips,9631 128 St,Surrey,Restaurant,49.17753881,-122.8680934
SPLH-AAATM9,Lighthouse Fresh & Tasty (88th Ave Surrey),12499 88 Ave,Surrey,Restaurant,49.16335778,-122.8766604
GEDS-7UUR33,Lighthouse Fresh and Tasty,8050 King George Blvd,Surrey,Restaurant,49.14889075,-122.845255
GEDS-6BEQ5E,Little Caesars Pizza #456-003,7135 138 St,Surrey,Restaurant,49.13246636,-122.8391595
A014053    ,Little Caesars Pizza #456-004,12830 96 Ave,Surrey,Restaurant,49.17696905,-122.8670944
A017919    ,Little Caesars Pizza #456-006,8888 152A St,Surrey,Restaurant,49.16418147,-122.7994144
HCAR-AUFSB5,Little Caesars Pizza #4889-0001,3041 152 St,Surrey,Restaurant,49.05731993,-122.8020893
SPLH-9KKPBC,Little Greek Restaurant,19110 96 Ave,Surrey,Restaurant,49.17682471,-122.6931809
NDAA-9NVSPB,Little Tea House (Surrey),15277 100 Ave,Surrey,Restaurant,49.1844401,-122.7987902
A016876    ,Lord Tweedsmuir Secondary School Cafeteria,6151 180 St,Surrey,Restaurant,49.11445485,-122.7240401
RORS-6732A2,Lovely Sweets & Restaurant,7168 128 St,Surrey,Restaurant,49.13296455,-122.8675698
LCAL-6TNQTM,Lucky Horse Restaurant (72nd Ave),13737 72 Ave,Surrey,Restaurant,49.13374407,-122.8417707
MARO-B3ETMC,Lucky Supermarket - Fast Food,10628 King George Blvd,Surrey,Restaurant,49.19567932,-122.8451643
MARO-B3TM53,Lyra Lou Cakes,14370 64 Ave,Surrey,Restaurant,49.11891376,-122.8242164
GEDS-68TMHX,M Bar,10680 151A St,Surrey,Restaurant,49.19631227,-122.8024303
ACAK-985SVG,Mac's Convenience Store #1094,13192 104 Ave,Surrey,Restaurant,49.19151202,-122.8569772
A020070    ,Mac's Convenience Store #11095,1751 King George Blvd,Surrey,Restaurant,49.03381391,-122.7795312
SWOD-9Y7LFB,Mac's Convenience Store #11096,14820 108 Ave,Surrey,Restaurant,49.19856643,-122.8119057
NDAA-A4NNSC,Mac's Convenience Store #11109,13983 16 Ave,Surrey,Restaurant,49.03139493,-122.8346276
SPLH-9KKLFZ,Mac's Convenience Store #11159,8007 King George Blvd,Surrey,Restaurant,49.1485101,-122.846053
JDSO-ADQPYF,Madras Club House,13737 72 Ave,Surrey,Restaurant,49.13374407,-122.8417707
SHEN-A47S4X,Maguro Japanese Restaurant,10090 152 St,Surrey,Restaurant,49.18575463,-122.8005815
NDAA-A4NQ5T,Maguroguy Asian Cuisine,2670 152 St,Surrey,Restaurant,49.05026809,-122.8009322
NDAA-98FRJN,Maharaja Banquet Hall,8148 128 St,Surrey,Restaurant,49.15057771,-122.8648305
GEDS-7UDLSN,Maharaja Catering,8148 128 St,Surrey,Restaurant,49.15057771,-122.8648305
SWOD-A45NPC,Mahaveer Chef's Choice,10227 King George Blvd,Surrey,Restaurant,49.18849999,-122.8457129
A019865    ,Mahek Chat House,8556 120 St,Surrey,Restaurant,49.15831669,-122.8900703
GEDS-6ZBMVJ,Mahek Restaurant & Lounge,9470 120 St,Surrey,Restaurant,49.17490502,-122.8899125
NDAA-92AQSX,Main Choice Chinese Restaurant,13393 72 Ave,Surrey,Restaurant,49.13381313,-122.8518073
SHEN-B55U5J,Mal Li Jang Sung,13648 105A Ave,Surrey,Restaurant,49.19427961,-122.8440074
GEDS-5YFNWJ,Malaysian Hut Restaurant,14727 108 Ave,Surrey,Restaurant,49.19889521,-122.8144564
ACAK-8TMV2A,Mama Mia Gelato / Noor Mahal,7130 120 St,Surrey,Restaurant,49.13256483,-122.8894631
GEDS-6Y2SA8,Man Seng Kitchen,14770 108A Ave,Surrey,Restaurant,49.19952855,-122.8134361
SHEN-9PAVDQ,Manis Restaurant,10768 Whalley Blvd,Surrey,Restaurant,49.19795341,-122.8420848
DMIL-8L2MUQ,Manohar Vegetarian Bakery,8120 128 St,Surrey,Restaurant,49.14939795,-122.8660477
SWOD-APTQ8E,Manohar Vegetarian Bakery - Fleetwood,15905 Fraser Hwy,Surrey,Restaurant,49.15907102,-122.7817545
SHEN-AU2T99,Maple Pizza and Grace Market,10063 117 St,Surrey,Restaurant,49.1856248,-122.8988844
SHEN-AMWPLX,Maple Sushi Japanese Restaurant,2385 King George Blvd,Surrey,Restaurant,49.04487841,-122.7942456
SWOD-AHFSWE,Marble Slab Creamery (160th St),2245 160 St,Surrey,Restaurant,49.04289123,-122.7795525
HHIN-B65QE3,Maritime Seafoods Inc.,19162 22 Ave,Surrey,Restaurant,49.04185082,-122.6927855
GEDS-6FCSSR,Martino's Cappuccino and Coffee Bar,12211 Beecher St,Surrey,Restaurant,49.0525937,-122.8836791
HCAR-B8NUS9,Mary Brown's Famous Chicken & Taters,18655 Fraser Hwy,Surrey,Restaurant,49.12564871,-122.7052808
JDSO-ACNPRH,MasQueSolo Sushi and Kitchen,5827 176 St,Surrey,Restaurant,49.10833316,-122.7351823
NDAA-ALQNX9,Mastro Pizza,1959 152 St,Surrey,Restaurant,49.03727504,-122.8014669
GEDS-6R5QAM,Maxim's Bakery (Surrey),10153 King George Blvd,Surrey,Restaurant,49.18592247,-122.8458478
GEDS-82XQBH,Maxxine Wright Community Health Centre,13733 92 Ave,Surrey,Restaurant,49.17026706,-122.8424291
GEDS-6FCQBD,Mayuri Indian Cuisine,12677 80 Ave,Surrey,Restaurant,49.14843217,-122.8714589
JDSO-AC7T7X,McDonald's # 40141,12451 88 Ave,Surrey,Restaurant,49.16571006,-122.8776849
JDSO-ACAMN8,McDonald's #22357,14476 104 Ave,Surrey,Restaurant,49.19131349,-122.8208021
SWOD-AFTRCP,McDonald's #8240,1789 152 St,Surrey,Restaurant,49.03413084,-122.8014663
A019243    ,McDonald's #8249,12930 96 Ave,Surrey,Restaurant,49.17695672,-122.8646301
A018086    ,McDonald's #8250,13565 72 Ave,Surrey,Restaurant,49.13372548,-122.8468094
A016803    ,McDonald's #8399,8586 120 St,Surrey,Restaurant,49.15930513,-122.8900798
A016843    ,McDonald's #8434,15574 Fraser Hwy,Surrey,Restaurant,49.16195612,-122.7913367
A017233    ,McDonald's #8550,11011 Scott Rd,Surrey,Restaurant,49.20265513,-122.8791657
A017472    ,McDonald's #8606,6333 King George Blvd,Surrey,Restaurant,49.11831829,-122.8458358
A018520    ,McDonald's #8616,17635 64 Ave,Surrey,Restaurant,49.1189676,-122.7337565
SHEN-AGKQYB,McDonald's #8688,3104 King George Blvd,Surrey,Restaurant,49.05869324,-122.8091811
SHEN-AGKQRM,McDonald's #8957,2355 160 St,Surrey,Restaurant,49.04439297,-122.781432
GEDS-68HREG,McDonald's (Cloverdale),17960 56 Ave,Surrey,Restaurant,49.10399281,-122.7252425
GEDS-68HQ9E,McDonald's (Tynehead),9638 160 St,Surrey,Restaurant,49.17750205,-122.778457
JDSO-AC4M2W,McDonald's Restaurant of Canada # 1196,10240 King George Blvd,Surrey,Restaurant,49.18861735,-122.8450797
GEDS-7LLUH7,McJac's Roadhouse Grille Restaurant,1781 King George Blvd,Surrey,Restaurant,49.03425714,-122.7800552
GEDS-6XLUHV,Mehfil India Restaurant & Sweets,9570 120 St,Surrey,Restaurant,49.17657841,-122.8898611
NDAA-8Y9UZA,Mek's Delight,14910 104 Ave,Surrey,Restaurant,49.19134073,-122.8085614
MMAR-873Q9Y,Memphis Blues BBQ,18690 Fraser Hwy,Surrey,Restaurant,49.12447159,-122.7040178
NDAA-A4FVF4,Menchie's #633,15146 100 Ave,Surrey,Restaurant,49.18396932,-122.8022452
SHEN-A3BV36,Menchies Frozen Yogurt - Morgan Crossing,15775 Croydon Dr,Surrey,Restaurant,49.04768716,-122.784927
HCAR-B6VNUX,Menz Noodle House,2940 King George Blvd,Surrey,Restaurant,49.05558062,-122.80546
SHEN-B23UYW,Menzou Ramen,15785 Croydon Dr,Surrey,Restaurant,49.0472666,-122.784369
SDFO-8ACT64,Mercy Ministries - Residential Care Service,19465 16 Ave,Surrey,Restaurant,49.031285,-122.6841963
A019337    ,Meridian Par 3,1054 168 St,Surrey,Restaurant,49.0211776,-122.7563544
HCAR-AVPVK9,Merienda Bakeshop,10059 Whalley Blvd,Surrey,Restaurant,49.18533778,-122.8436771
HCAR-B83R98,Metro 1 Sweets & Catering,8383 128 St,Surrey,Restaurant,49.15512572,-122.8683298
HCAR-AWERFN,Mezbaan (Indo Chinese Food),12790 96 Ave,Surrey,Restaurant,49.17702781,-122.8684586
SYOG-5M57KL,Michael's Artisan Bakery,15578 24 Ave,Surrey,Restaurant,49.04542303,-122.7907547
ACAK-9BETPK,Migoto Sushi/Guildford,10355 152 St,Surrey,Restaurant,49.19192585,-122.8042654
GEDS-6A5PPP,Milestone's (South Point),3085 152 St,Surrey,Restaurant,49.05783493,-122.8021325
NDAA-9RTTCV,Milestones Restaurants,10355 152 St,Surrey,Restaurant,49.19192585,-122.8042654
HCAR-AU7R9T,Miltomates,9613 192 St,Surrey,Restaurant,49.17736128,-122.690718
SPLH-AZ8NW8,Mindful Juice Bar,10330 152 St,Surrey,Restaurant,49.19027016,-122.8000928
SWOD-AHQPLH,Ming Yan Seafood Restaurant,3238 King George Blvd,Surrey,Restaurant,49.06094416,-122.8119051
SDFO-89YT2W,Mink A Chocolate Cafe,15775 Croydon Dr,Surrey,Restaurant,49.04768716,-122.784927
PGOO-68KPB5,Mirage Banquet Hall,17767 64 Ave,Surrey,Restaurant,49.11898358,-122.7302435
JDSO-ADSL2J,Miyagi Japanese Restaurant,8556 120 St,Surrey,Restaurant,49.15831669,-122.8900703
SPLH-9KJSG4,Momotaro Japanese Restaurant,3189 King George Blvd,Surrey,Restaurant,49.05963853,-122.8116169
GEDS-6RUV4W,Mongolie Grill,19583 Fraser Hwy,Surrey,Restaurant,49.1143158,-122.6801952
A020245    ,Morgan Creek Golf Course - Kitchen,3500 Morgan Creek Way,Surrey,Restaurant,49.06494761,-122.7819576
A020246    ,Morgan Creek Golf Course - Lounge,3500 Morgan Creek Way,Surrey,Restaurant,49.06494761,-122.7819576
A020247    ,Morgan Creek Golf Course - Snack Bar,3500 Morgan Creek Way,Surrey,Restaurant,49.06494761,-122.7819576
SODN-66TNK5,Morgan Place Food Service,3288 156A St,Surrey,Restaurant,49.06136888,-122.78995
GEDS-7F9PV7,Morrison Cafe,12855 16 Ave,Surrey,Restaurant,49.03144488,-122.8658716
GEDS-68TMF7,Moxie's Classic Grill (Surrey),10680 151A St,Surrey,Restaurant,49.19631227,-122.8024303
SWOD-APSMWX,Mr Pei Restaurant,1724 152 St,Surrey,Restaurant,49.03325282,-122.8009403
HCAR-BAHMN8,Mr. Tongatsu,10320 152 St,Surrey,Restaurant,49.19010913,-122.8005972
SHEN-ABRQQJ,Mucho Burrito (Fresh Mexican Restaurant),9666 King George Blvd,Surrey,Restaurant,49.1787182,-122.8452586
SHEN-AKHT58,Mughal Palace Restaurant,12827 76 Ave,Surrey,Restaurant,49.14117557,-122.867155
GEDS-7MU2N7,Murchie's Tea & Coffee,1711 152 St,Surrey,Restaurant,49.0331143,-122.801669
A018517    ,My Greek Taverna,6450 120 St,Surrey,Restaurant,49.12012336,-122.8900805
SPLH-9KHTLN,My Shanti,15869 Croydon Dr,Surrey,Restaurant,49.04600869,-122.7824692
GEDS-84NQEZ,Nagoya,9175 148 St,Surrey,Restaurant,49.1697757,-122.812506
SDFO-8EHMF4,Nahm Thai Bistro,13650 102 Ave,Surrey,Restaurant,49.18765816,-122.8436795
HCAR-BCUPTK,Namdhari's Punjabi Spice,9172 120 St,Surrey,Restaurant,49.16998256,-122.8899906
HCAR-ASHTLJ,Namhansansung,14787 108 Ave,Surrey,Restaurant,49.1988845,-122.8130069
HCAR-B6HVDN,Nancy Gerard Building (Site #1),10662 King George Blvd,Surrey,Restaurant,49.19640588,-122.8449529
ACAK-9AJQYX,Nando's Chicken (Guildford),15190 101 Ave,Surrey,Restaurant,49.18595731,-122.8016742
NDAA-9NTQ34,Nando's Flame-Grilled Chicken (72nd Ave),12101 72 Ave,Surrey,Restaurant,49.13501849,-122.8876389
SDFO-894NSA,Nav Sweets and Restaurant,8140 120 St,Surrey,Restaurant,49.15114002,-122.8900665
NDAA-8YSPY4,Navraj Sweets & Restaurant,8148 128 St,Surrey,Restaurant,49.15057771,-122.8648305
ACAK-985LYR,Neptune Seafood Restaurant & Neptune Wonton Noodle,10153 King George Blvd,Surrey,Restaurant,49.18592247,-122.8458478
HCAR-AU9VCN,Nesters Market - Deli Department,10835 City Pky,Surrey,Restaurant,49.19953285,-122.8490586
SODN-672P3Z,Nesters Market Deli & Bakery,16033 108 Ave,Surrey,Restaurant,49.1989669,-122.7777544
SHEN-A3NP96,New Asian Spice,9436 120 St,Surrey,Restaurant,49.17436505,-122.889946
NDAA-9NYPNB,New Express Pizza,13654 Grosvenor Rd,Surrey,Restaurant,49.19969218,-122.8437614
GEDS-666UND,New Frontier Club House,9803 140 St,Surrey,Restaurant,49.18060228,-122.834614
GEDS-7UENZQ,New Greenwood Lodge,13227 96 Ave,Surrey,Restaurant,49.17726771,-122.8560403
NDAA-8YSTH8,New Hollywood Cinema,7125 138 St,Surrey,Restaurant,49.13221632,-122.8391633
A019335    ,New Life Child Care Centre,8868 128 St,Surrey,Restaurant,49.16375394,-122.8678044
MARO-B3AV4Z,New Szechuan Restaurant,10320 Whalley Blvd,Surrey,Restaurant,49.19005253,-122.84169
A019922    ,New Town Bakery & Restaurant,10302 City Pky,Surrey,Restaurant,49.18995809,-122.8473921
NDAA-9CXRN3,New York Fries,10355 152 St,Surrey,Restaurant,49.19192585,-122.8042654
MARO-B3ALPA,New York New York Greek Restaurant,6361 152 St,Surrey,Restaurant,49.1184735,-122.8013935
SDFO-8MXR43,Newton Arena,7120 136B St,Surrey,Restaurant,49.13202916,-122.8432119
A016864    ,Newton Canadian Baseball Association,13313 68 Ave,Surrey,Restaurant,49.12658168,-122.8538239
A019571    ,Newton Girls Softball Concession (Sullivan Park),6272 152 St,Surrey,Restaurant,49.11688217,-122.8007397
A018064    ,Newton Pizza,6828 128 St,Surrey,Restaurant,49.12696263,-122.8675312
GEDS-738QQL,Newton Pizza (64th Ave),18408 64 Ave,Surrey,Restaurant,49.11859295,-122.7119888
ACAK-8UDNUP,Newton Pizza (South Surrey),2570 King George Blvd,Surrey,Restaurant,49.04892267,-122.7971082
A018188    ,Newton Seniors Centre,13775 70 Ave,Surrey,Restaurant,49.13016114,-122.8409302
ACAK-985M8K,Next Level Fitness,13569 76 Ave,Surrey,Restaurant,49.1409873,-122.8470477
NDAA-9S2QL6,Nickel's Bakery and Krakus Deli,10675 King George Blvd,Surrey,Restaurant,49.19673312,-122.8456128
HCAR-B6J22M,Nickerson Place (Site #2),13550 105 Ave,Surrey,Restaurant,49.19296155,-122.8467631
SPLH-AS8TP6,Nielsen's Your Independent Grocer - Deli,18765 Fraser Hwy,Surrey,Restaurant,49.12529104,-122.7023653
SDFO-87RMVS,Nightshift Street Ministries (kitchen),10635 King George Blvd,Surrey,Restaurant,49.1957928,-122.8454364
A017608    ,Nikko Sushi (Cloverdale),5676 176 St,Surrey,Restaurant,49.10555097,-122.7347669
SWOD-AHJP6S,Non Stop Pizza & Curry,19188 72 Ave,Surrey,Restaurant,49.13346587,-122.6915763
GEDS-69LMHM,Non Stop Pizza (120th St),7500 120 St,Surrey,Restaurant,49.13913715,-122.8900684
HCAR-B6KNMH,Non Stop Pizza and Indian Cuisine,10470 King George Blvd,Surrey,Restaurant,49.19289827,-122.845058
GEDS-7XFNQZ,Non Stop Sweets & Restaurant,15272 Fraser Hwy,Surrey,Restaurant,49.16507512,-122.7993058
HCAR-ATHUTY,Noodlebox,15785 Croydon Dr,Surrey,Restaurant,49.0472666,-122.784369
SHEN-AU2QL6,Noor Sweets and Restaurant,13588 88 Ave,Surrey,Restaurant,49.16252802,-122.8468646
GEDS-7N929H,Nordel Sushi,12080 Nordel Way,Surrey,Restaurant,49.16109806,-122.8886041
A018006    ,North Surrey Arena Concession,10275 City Pky,Surrey,Restaurant,49.18937765,-122.848712
A018909    ,North Surrey Minor Football Track Concession,13750 88 Ave,Surrey,Restaurant,49.16216661,-122.842413